{"type":"FeatureCollection","features":[{"type":"Feature","properties":{"id":"point_breeze_north","name":"Point Breeze North","lat":40.45176,"lon":-79.90214,"area_sqkm":0.78,"population":2338,"density_per_sqkm":2990,"population_profile":"Point Breeze North","combined_profile":false},"geometry":{"type":"Polygon","coordinates":[[[-79.90614,40.45581],[-79.89444,40.45112],[-79.89279,40.45031],[-79.8926,40.45057],[-79.89243,40.45046],[-79.89323,40.4465],[-79.90866,40.45167],[-79.90985,40.45228],[-79.91243,40.45404],[-79.90955,40.4567],[-79.90789,40.45607],[-79.90614,40.45581]]]}},{"type":"Feature","properties":{"id":"squirrel_hill_north","name":"Squirrel Hill North","lat":40.44358,"lon":-79.92943,"area_sqkm":3.17,"population":27002,"density_per_sqkm":2673,"population_profile":"Squirrel Hill","combined_profile":true},"geometry":{"type":"Polygon","coordinates":[[[-79.92159,40.44752],[-79.92052,40.44386],[-79.91585,40.4447],[-79.91413,40.44636],[-79.91234,40.44674],[-79.91165,40.4467],[-79.91309,40.43804],[-79.92698,40.43808],[-79.93595,40.43759],[-79.939,40.43856],[-79.94057,40.43881],[-79.94156,40.4398],[-79.94231,40.44018],[-79.94225,40.44049],[-79.94716,40.4415],[-79.94819,40.44081],[-79.94925,40.44135],[-79.94757,40.44341],[-79.94652,40.44506],[-79.94736,40.44711],[-79.93573,40.44793],[-79.92751,40.45052],[-79.92208,40.45269],[-79.92072,40.4529],[-79.92027,40.45096],[-79.92159,40.44752]]]}},{"type":"Feature","properties":{"id":"garfield","name":"Garfield","lat":40.46829,"lon":-79.93784,"area_sqkm":1.18,"population":4038,"density_per_sqkm":3409,"population_profile":"Garfield","combined_profile":false},"geometry":{"type":"Polygon","coordinates":[[[-79.93546,40.47257],[-79.93455,40.47215],[-79.93285,40.47066],[-79.92752,40.46876],[-79.93068,40.4635],[-79.93452,40.46478],[-79.93939,40.46454],[-79.94645,40.46547],[-79.94612,40.46697],[-79.94725,40.46798],[-79.94734,40.46869],[-79.94667,40.46978],[-79.9448,40.47145],[-79.94371,40.47195],[-79.94206,40.47227],[-79.93942,40.47305],[-79.93782,40.47306],[-79.93546,40.47257]]]}},{"type":"Feature","properties":{"id":"bedford_dwellings","name":"Bedford Dwellings","lat":40.45102,"lon":-79.97439,"area_sqkm":0.45,"population":1545,"density_per_sqkm":3396,"population_profile":"Bedford Dwellings","combined_profile":false},"geometry":{"type":"Polygon","coordinates":[[[-79.96601,40.45567],[-79.96579,40.45385],[-79.96493,40.45289],[-79.96667,40.45318],[-79.96946,40.452],[-79.96892,40.45116],[-79.96909,40.45108],[-79.97253,40.44963],[-79.973,40.4505],[-79.98273,40.44638],[-79.98366,40.44765],[-79.9839,40.44853],[-79.98176,40.44961],[-79.97986,40.45024],[-79.97685,40.45097],[-79.97367,40.45285],[-79.96831,40.455],[-79.96601,40.45567]]]}},{"type":"Feature","properties":{"id":"knoxville","name":"Knoxville","lat":40.41356,"lon":-79.99301,"area_sqkm":0.78,"population":3513,"density_per_sqkm":4527,"population_profile":"Knoxville","combined_profile":false},"geometry":{"type":"Polygon","coordinates":[[[-79.98819,40.41852],[-79.98804,40.41444],[-79.98953,40.41223],[-79.99191,40.40718],[-79.99675,40.40817],[-79.99695,40.41102],[-79.9968,40.4114],[-79.99728,40.41827],[-79.98819,40.41852]]]}},{"type":"Feature","properties":{"id":"homewood_south","name":"Homewood South","lat":40.45331,"lon":-79.89274,"area_sqkm":1.0,"population":2186,"density_per_sqkm":2180,"population_profile":"Homewood South","combined_profile":false},"geometry":{"type":"Polygon","coordinates":[[[-79.90112,40.4585],[-79.88595,40.45508],[-79.88518,40.45288],[-79.88522,40.45256],[-79.88478,40.45186],[-79.88409,40.44915],[-79.88458,40.44931],[-79.88593,40.44691],[-79.88837,40.44774],[-79.88982,40.44906],[-79.89116,40.44983],[-79.89243,40.45027],[-79.8926,40.45057],[-79.89279,40.45031],[-79.89444,40.45112],[-79.90531,40.45549],[-79.90276,40.45491],[-79.90223,40.4557],[-79.90112,40.4585]]]}},{"type":"Feature","properties":{"id":"middle_hill","name":"Middle Hill","lat":40.44772,"lon":-79.97289,"area_sqkm":0.79,"population":1746,"density_per_sqkm":2209,"population_profile":"Middle Hill","combined_profile":false},"geometry":{"type":"Polygon","coordinates":[[[-79.96493,40.45289],[-79.96434,40.45211],[-79.96538,40.45016],[-79.96487,40.44878],[-79.96517,40.44872],[-79.96896,40.44609],[-79.97505,40.44367],[-79.97562,40.44445],[-79.97928,40.44288],[-79.98001,40.44388],[-79.98035,40.44364],[-79.98243,40.4465],[-79.973,40.4505],[-79.97253,40.44963],[-79.97047,40.4505],[-79.96892,40.45116],[-79.96946,40.452],[-79.96667,40.45318],[-79.96493,40.45289]]]}},{"type":"Feature","properties":{"id":"oakwood","name":"Oakwood","lat":40.42693,"lon":-80.06581,"area_sqkm":0.65,"population":1563,"density_per_sqkm":880,"population_profile":"East Carnegie - Oakwood","combined_profile":true},"geometry":{"type":"Polygon","coordinates":[[[-80.06437,40.42877],[-80.06318,40.42787],[-80.06217,40.42906],[-80.05979,40.42829],[-80.05916,40.42934],[-80.05608,40.42812],[-80.05378,40.42795],[-80.05434,40.42755],[-80.05724,40.42645],[-80.06396,40.4263],[-80.06552,40.42512],[-80.06717,40.42289],[-80.06689,40.42063],[-80.06727,40.42069],[-80.06728,40.42118],[-80.06848,40.42248],[-80.07233,40.42462],[-80.0726,40.42553],[-80.07321,40.42605],[-80.07057,40.42864],[-80.06858,40.43137],[-80.06555,40.43036],[-80.06437,40.42877]]]}},{"type":"Feature","properties":{"id":"north_oakland","name":"North Oakland","lat":40.44828,"lon":-79.95356,"area_sqkm":1.29,"population":10103,"density_per_sqkm":7849,"population_profile":"North Oakland","combined_profile":false},"geometry":{"type":"Polygon","coordinates":[[[-79.94969,40.45259],[-79.94652,40.44525],[-79.94659,40.44492],[-79.94757,40.44341],[-79.94925,40.44135],[-79.95035,40.44196],[-79.95168,40.44242],[-79.95229,40.44224],[-79.95266,40.44182],[-79.95304,40.44203],[-79.95355,40.44318],[-79.95539,40.44269],[-79.95644,40.44196],[-79.95934,40.44356],[-79.95988,40.44315],[-79.96101,40.44366],[-79.96199,40.44278],[-79.96321,40.44353],[-79.96336,40.44431],[-79.96326,40.44467],[-79.96279,40.44522],[-79.96195,40.44554],[-79.96089,40.44548],[-79.96043,40.44566],[-79.95982,40.4474],[-79.9592,40.44771],[-79.95878,40.44827],[-79.95491,40.45098],[-79.95407,40.45323],[-79.95528,40.45731],[-79.95595,40.45821],[-79.95722,40.45866],[-79.95706,40.45907],[-79.95594,40.46031],[-79.95375,40.45803],[-79.95299,40.45764],[-79.95148,40.45735],[-79.94978,40.45312],[-79.94969,40.45259]]]}},{"type":"Feature","properties":{"id":"duquesne_heights","name":"Duquesne Heights","lat":40.43545,"lon":-80.02483,"area_sqkm":1.6,"population":2346,"density_per_sqkm":1462,"population_profile":"Duquesne Heights","combined_profile":false},"geometry":{"type":"Polygon","coordinates":[[[-80.0285,40.44395],[-80.01773,40.43974],[-80.01893,40.43815],[-80.01823,40.43778],[-80.01859,40.43737],[-80.01883,40.43638],[-80.01829,40.43629],[-80.01902,40.4354],[-80.01918,40.43499],[-80.01798,40.43481],[-80.02062,40.42619],[-80.02082,40.42573],[-80.02108,40.42574],[-80.02097,40.42554],[-80.02113,40.42519],[-80.02344,40.42594],[-80.02452,40.42649],[-80.02724,40.42947],[-80.02804,40.43008],[-80.0263,40.43102],[-80.02858,40.43339],[-80.03231,40.43547],[-80.03289,40.43621],[-80.03303,40.43666],[-80.0329,40.439],[-80.03254,40.4398],[-80.02961,40.44264],[-80.0296,40.44282],[-80.0285,40.44395]]]}},{"type":"Feature","properties":{"id":"glen_hazel","name":"Glen Hazel","lat":40.40603,"lon":-79.93039,"area_sqkm":1.18,"population":6376,"density_per_sqkm":535,"population_profile":"Hazelwood-Glen Hazel - New Homestead-Hays","combined_profile":true},"geometry":{"type":"Polygon","coordinates":[[[-79.92131,40.41237],[-79.92076,40.41163],[-79.92027,40.41203],[-79.91974,40.41163],[-79.92205,40.4093],[-79.92294,40.40765],[-79.92648,40.4035],[-79.92874,40.40157],[-79.93242,40.39935],[-79.93563,40.3986],[-79.93594,40.39983],[-79.93769,40.40007],[-79.93803,40.40024],[-79.93787,40.4002],[-79.93732,40.40075],[-79.93594,40.40301],[-79.93535,40.40344],[-79.93526,40.40483],[-79.93651,40.40515],[-79.93546,40.4065],[-79.93636,40.40714],[-79.93739,40.4076],[-79.93718,40.40788],[-79.93727,40.40794],[-79.93707,40.40851],[-79.93687,40.40856],[-79.93726,40.40985],[-79.93056,40.41137],[-79.9296,40.40966],[-79.92736,40.41064],[-79.92723,40.41034],[-79.92696,40.41024],[-79.92608,40.4105],[-79.92518,40.41045],[-79.92306,40.41137],[-79.92278,40.41181],[-79.92231,40.41171],[-79.92202,40.41194],[-79.92171,40.41178],[-79.92156,40.41223],[-79.92131,40.41237]]]}},{"type":"Feature","properties":{"id":"east_liberty","name":"East Liberty","lat":40.46466,"lon":-79.92461,"area_sqkm":1.51,"population":6645,"density_per_sqkm":4413,"population_profile":"East Liberty","combined_profile":false},"geometry":{"type":"Polygon","coordinates":[[[-79.9312,40.47344],[-79.92124,40.46976],[-79.91695,40.46859],[-79.91616,40.467],[-79.9178,40.46661],[-79.91906,40.46613],[-79.91991,40.46508],[-79.91877,40.46463],[-79.91741,40.46345],[-79.91638,40.46227],[-79.9159,40.46114],[-79.91568,40.46011],[-79.91577,40.45987],[-79.91674,40.4581],[-79.91742,40.45749],[-79.92123,40.46005],[-79.92273,40.46066],[-79.93406,40.45727],[-79.93426,40.45758],[-79.93407,40.45793],[-79.92752,40.46876],[-79.93279,40.47064],[-79.93172,40.47205],[-79.93147,40.47392],[-79.9312,40.47344]]]}},{"type":"Feature","properties":{"id":"westwood","name":"Westwood","lat":40.43293,"lon":-80.0485,"area_sqkm":1.79,"population":3647,"density_per_sqkm":1344,"population_profile":"Westwood - Ridgemont","combined_profile":true},"geometry":{"type":"Polygon","coordinates":[[[-80.04448,40.43822],[-80.03961,40.43703],[-80.03863,40.43641],[-80.03885,40.43601],[-80.03668,40.4354],[-80.03677,40.43509],[-80.03584,40.4347],[-80.03706,40.4346],[-80.03755,40.43424],[-80.03815,40.43287],[-80.03879,40.432],[-80.03977,40.42955],[-80.0404,40.42885],[-80.0407,40.42869],[-80.04169,40.42899],[-80.04249,40.42863],[-80.04315,40.42805],[-80.04271,40.42868],[-80.04329,40.4282],[-80.04463,40.42907],[-80.04665,40.42943],[-80.04681,40.42738],[-80.0466,40.42704],[-80.0474,40.42702],[-80.04738,40.42596],[-80.04781,40.42574],[-80.04946,40.42682],[-80.05146,40.42715],[-80.05402,40.428],[-80.05608,40.42812],[-80.05916,40.42934],[-80.05791,40.43147],[-80.05752,40.43129],[-80.05729,40.43158],[-80.05757,40.43452],[-80.05803,40.43452],[-80.05811,40.43522],[-80.05792,40.43641],[-80.05913,40.43714],[-80.05712,40.43763],[-80.05423,40.43793],[-80.05338,40.43795],[-80.05236,40.43758],[-80.05116,40.4375],[-80.04922,40.43813],[-80.04776,40.43811],[-80.04596,40.4383],[-80.04448,40.43822]]]}},{"type":"Feature","properties":{"id":"morningside","name":"Morningside","lat":40.48358,"lon":-79.92762,"area_sqkm":0.97,"population":3222,"density_per_sqkm":3321,"population_profile":"Morningside","combined_profile":false},"geometry":{"type":"Polygon","coordinates":[[[-79.93265,40.49047],[-79.92643,40.49005],[-79.92021,40.48875],[-79.91874,40.48839],[-79.91836,40.48813],[-79.91817,40.48825],[-79.91644,40.48789],[-79.91317,40.48687],[-79.91335,40.48664],[-79.91937,40.48821],[-79.91964,40.48732],[-79.92025,40.48742],[-79.92048,40.48726],[-79.92046,40.48679],[-79.92061,40.48657],[-79.92236,40.48533],[-79.92329,40.48437],[-79.92423,40.48324],[-79.92482,40.48191],[-79.92734,40.481],[-79.92763,40.47791],[-79.92859,40.47534],[-79.92832,40.47472],[-79.92835,40.47233],[-79.93131,40.47352],[-79.93192,40.47522],[-79.93172,40.47649],[-79.93202,40.47859],[-79.92984,40.4854],[-79.92697,40.48769],[-79.92598,40.48762],[-79.92554,40.48832],[-79.92788,40.48886],[-79.93024,40.48914],[-79.93264,40.48903],[-79.93486,40.48918],[-79.93716,40.48844],[-79.93768,40.49001],[-79.93513,40.49038],[-79.93265,40.49047]]]}},{"type":"Feature","properties":{"id":"lincoln_place","name":"Lincoln Place","lat":40.37141,"lon":-79.91411,"area_sqkm":2.54,"population":3249,"density_per_sqkm":1278,"population_profile":"Lincoln Place","combined_profile":false},"geometry":{"type":"Polygon","coordinates":[[[-79.91149,40.37958],[-79.91048,40.37838],[-79.9103,40.37855],[-79.90835,40.37816],[-79.90934,40.3769],[-79.90885,40.3767],[-79.91182,40.37281],[-79.90854,40.37046],[-79.90344,40.3719],[-79.9003,40.36526],[-79.90526,40.36287],[-79.90495,40.36217],[-79.90591,40.36208],[-79.90718,40.36152],[-79.90821,40.36358],[-79.91082,40.36286],[-79.9113,40.36408],[-79.9119,40.36502],[-79.91332,40.36464],[-79.91373,40.36552],[-79.92067,40.36537],[-79.92229,40.36864],[-79.92236,40.37072],[-79.92344,40.37054],[-79.92469,40.37307],[-79.92499,40.3751],[-79.92658,40.37501],[-79.92677,40.37564],[-79.92682,40.37652],[-79.92666,40.37725],[-79.92551,40.37961],[-79.92392,40.37907],[-79.92349,40.37915],[-79.92304,40.37889],[-79.92183,40.37866],[-79.9205,40.37808],[-79.92007,40.37805],[-79.91784,40.37953],[-79.91398,40.38089],[-79.91331,40.38094],[-79.91169,40.38055],[-79.91149,40.37958]]]}},{"type":"Feature","properties":{"id":"perry_north","name":"Perry North","lat":40.48609,"lon":-80.01776,"area_sqkm":3.13,"population":3799,"density_per_sqkm":1212,"population_profile":"Perry North","combined_profile":false},"geometry":{"type":"Polygon","coordinates":[[[-80.01783,40.49736],[-80.01787,40.49725],[-80.01616,40.49742],[-80.014,40.49649],[-80.01251,40.49671],[-80.01044,40.48969],[-80.00919,40.48374],[-80.00877,40.48338],[-80.00785,40.48313],[-80.00751,40.48081],[-80.00776,40.47671],[-80.01215,40.47615],[-80.01211,40.47566],[-80.01125,40.47496],[-80.01443,40.47478],[-80.01486,40.47566],[-80.01579,40.47633],[-80.01587,40.47673],[-80.01546,40.47719],[-80.01447,40.47729],[-80.01422,40.47745],[-80.01853,40.47727],[-80.01972,40.4766],[-80.02463,40.47658],[-80.02533,40.47621],[-80.02616,40.47637],[-80.02635,40.4762],[-80.02661,40.47634],[-80.02613,40.47656],[-80.02624,40.47665],[-80.02646,40.47655],[-80.02673,40.47671],[-80.02685,40.4766],[-80.02664,40.47648],[-80.02676,40.47643],[-80.0273,40.47674],[-80.02659,40.47746],[-80.027,40.47769],[-80.02581,40.4789],[-80.02598,40.47897],[-80.026,40.47938],[-80.02351,40.4794],[-80.02493,40.48178],[-80.02568,40.48276],[-80.02507,40.48586],[-80.02674,40.48899],[-80.02704,40.48985],[-80.02777,40.49103],[-80.0278,40.4965],[-80.0259,40.49681],[-80.02543,40.49534],[-80.0246,40.49549],[-80.02417,40.49505],[-80.02291,40.4953],[-80.02199,40.49385],[-80.02098,40.49462],[-80.02025,40.49571],[-80.01995,40.49679],[-80.02008,40.49772],[-80.01783,40.49736]]]}},{"type":"Feature","properties":{"id":"northview_heights","name":"Northview Heights","lat":40.47764,"lon":-80.0026,"area_sqkm":0.81,"population":2815,"density_per_sqkm":1438,"population_profile":"Northview Heights - Summer Hill","combined_profile":true},"geometry":{"type":"Polygon","coordinates":[[[-80.00363,40.48294],[-80.00322,40.48295],[-80.00319,40.48238],[-80.00177,40.48244],[-80.00169,40.48009],[-79.99878,40.47982],[-79.99854,40.47891],[-79.99652,40.47919],[-79.99535,40.47737],[-79.99599,40.47734],[-79.99584,40.47454],[-79.99643,40.47444],[-79.9977,40.4746],[-80.0005,40.47418],[-80.00055,40.4733],[-80.00287,40.47321],[-80.005,40.47222],[-80.00747,40.4759],[-80.00776,40.47671],[-80.00751,40.48081],[-80.00785,40.48313],[-80.00648,40.4828],[-80.00598,40.48237],[-80.00472,40.48333],[-80.00424,40.4833],[-80.00363,40.48294]]]}},{"type":"Feature","properties":{"id":"homewood_north","name":"Homewood North","lat":40.45909,"lon":-79.89019,"area_sqkm":1.12,"population":3407,"density_per_sqkm":2095,"population_profile":"Homewood North - Homewood West","combined_profile":true},"geometry":{"type":"Polygon","coordinates":[[[-79.89453,40.46261],[-79.89,40.46169],[-79.89,40.46184],[-79.87924,40.45916],[-79.8788,40.4583],[-79.87769,40.4571],[-79.87993,40.45525],[-79.88094,40.45506],[-79.88406,40.45549],[-79.88611,40.45508],[-79.90112,40.4585],[-79.89903,40.46387],[-79.90063,40.46425],[-79.89898,40.46468],[-79.8962,40.46404],[-79.89453,40.46261]]]}},{"type":"Feature","properties":{"id":"arlington_heights","name":"Arlington Heights","lat":40.41634,"lon":-79.96113,"area_sqkm":0.33,"population":3200,"density_per_sqkm":1209,"population_profile":"Arlington - Arlington Heights - Mount Oliver (City Neighborhood) - St. Clair","combined_profile":true},"geometry":{"type":"Polygon","coordinates":[[[-79.96027,40.4181],[-79.95949,40.41865],[-79.95843,40.41779],[-79.95929,40.41718],[-79.9591,40.41719],[-79.9587,40.41657],[-79.95781,40.4169],[-79.95753,40.41518],[-79.95729,40.41472],[-79.95725,40.41253],[-79.95774,40.41243],[-79.95832,40.41302],[-79.95839,40.41245],[-79.96027,40.4128],[-79.96039,40.41462],[-79.96061,40.41476],[-79.96235,40.41515],[-79.96531,40.41513],[-79.96568,40.41735],[-79.96511,40.41744],[-79.96404,40.41827],[-79.9636,40.41903],[-79.96304,40.41929],[-79.96257,40.4202],[-79.96273,40.42033],[-79.96201,40.42092],[-79.961,40.42026],[-79.96177,40.41926],[-79.96027,40.4181]]]}},{"type":"Feature","properties":{"id":"lower_lawrenceville","name":"Lower Lawrenceville","lat":40.46478,"lon":-79.96435,"area_sqkm":1.11,"population":2724,"density_per_sqkm":2446,"population_profile":"Lower Lawrenceville","combined_profile":false},"geometry":{"type":"Polygon","coordinates":[[[-79.95796,40.46519],[-79.95717,40.46239],[-79.95397,40.46291],[-79.95364,40.46276],[-79.95594,40.46031],[-79.9571,40.46077],[-79.9582,40.46082],[-79.96608,40.45944],[-79.96664,40.46061],[-79.96716,40.46056],[-79.96808,40.46102],[-79.97265,40.46487],[-79.96715,40.47187],[-79.96385,40.46994],[-79.95796,40.46519]]]}},{"type":"Feature","properties":{"id":"larimer","name":"Larimer","lat":40.46227,"lon":-79.91212,"area_sqkm":1.15,"population":1473,"density_per_sqkm":1278,"population_profile":"Larimer","combined_profile":false},"geometry":{"type":"Polygon","coordinates":[[[-79.90594,40.46338],[-79.9056,40.46227],[-79.90606,40.46136],[-79.90941,40.45685],[-79.91243,40.45404],[-79.91742,40.45749],[-79.91674,40.4581],[-79.91577,40.45987],[-79.91568,40.46011],[-79.9159,40.46114],[-79.91638,40.46227],[-79.91741,40.46345],[-79.91877,40.46463],[-79.91991,40.46508],[-79.91906,40.46613],[-79.9178,40.46661],[-79.91427,40.46754],[-79.91114,40.46891],[-79.90955,40.47019],[-79.90863,40.47029],[-79.90882,40.4679],[-79.90873,40.46736],[-79.90594,40.46338]]]}},{"type":"Feature","properties":{"id":"lincoln_lemington_belmar","name":"Lincoln-Lemington-Belmar","lat":40.47629,"lon":-79.89689,"area_sqkm":4.71,"population":3644,"density_per_sqkm":774,"population_profile":"Lincoln-Lemington-Belmar","combined_profile":false},"geometry":{"type":"MultiPolygon","coordinates":[[[[-79.90607,40.48524],[-79.9036,40.48504],[-79.90234,40.48448],[-79.89978,40.48404],[-79.89638,40.48374],[-79.89503,40.48324],[-79.88834,40.48246],[-79.88592,40.48241],[-79.88487,40.48223],[-79.88396,40.48242],[-79.88467,40.47932],[-79.88499,40.47882],[-79.88656,40.47819],[-79.88773,40.47315],[-79.89,40.46169],[-79.8931,40.46242],[-79.89446,40.46255],[-79.8962,40.46404],[-79.89898,40.46468],[-79.90419,40.46332],[-79.90562,40.4626],[-79.90594,40.46338],[-79.90834,40.46665],[-79.90873,40.46736],[-79.90882,40.4679],[-79.90784,40.47965],[-79.90803,40.48297],[-79.90793,40.48363],[-79.90757,40.48394],[-79.90653,40.48394],[-79.90607,40.48524]]],[[[-79.88462,40.48838],[-79.88456,40.48678],[-79.88818,40.48645],[-79.88811,40.4852],[-79.88886,40.48515],[-79.89345,40.48577],[-79.90149,40.48744],[-79.90163,40.48899],[-79.89761,40.48789],[-79.89692,40.49262],[-79.88724,40.49116],[-79.88461,40.49093],[-79.88471,40.4903],[-79.88449,40.48896],[-79.88462,40.48838]]]]}},{"type":"Feature","properties":{"id":"bluff","name":"Bluff","lat":40.43635,"lon":-79.9849,"area_sqkm":0.84,"population":6609,"density_per_sqkm":7845,"population_profile":"Bluff","combined_profile":false},"geometry":{"type":"Polygon","coordinates":[[[-79.99371,40.43893],[-79.97589,40.43815],[-79.97355,40.43796],[-79.97265,40.4377],[-79.97341,40.43428],[-79.97785,40.43535],[-79.98212,40.4347],[-79.98198,40.43482],[-79.98294,40.43484],[-79.9859,40.43401],[-79.98805,40.43372],[-79.99075,40.43363],[-79.99583,40.434],[-79.99458,40.43588],[-79.99371,40.43893]]]}},{"type":"Feature","properties":{"id":"fairywood","name":"Fairywood","lat":40.45076,"lon":-80.08475,"area_sqkm":2.51,"population":8808,"density_per_sqkm":1289,"population_profile":"Esplen-Sheraden-Chartiers City- Windgap-Fairywood","combined_profile":true},"geometry":{"type":"Polygon","coordinates":[[[-80.08392,40.45947],[-80.08425,40.45938],[-80.08207,40.45724],[-80.08074,40.45618],[-80.08021,40.45616],[-80.08015,40.45584],[-80.07768,40.45346],[-80.07661,40.45253],[-80.0739,40.45064],[-80.07294,40.44961],[-80.07264,40.44944],[-80.06995,40.44889],[-80.06862,40.44785],[-80.07159,40.44863],[-80.07295,40.44833],[-80.07315,40.44866],[-80.07654,40.44801],[-80.07636,40.44725],[-80.07851,40.44653],[-80.07636,40.44182],[-80.08024,40.44065],[-80.08051,40.4405],[-80.08075,40.43975],[-80.08289,40.44044],[-80.08407,40.44194],[-80.08924,40.44334],[-80.09017,40.44417],[-80.0904,40.44542],[-80.09011,40.44659],[-80.09028,40.44753],[-80.09103,40.44906],[-80.08954,40.44984],[-80.08952,40.45043],[-80.08994,40.45103],[-80.09072,40.45143],[-80.09152,40.45135],[-80.0927,40.4508],[-80.0936,40.45075],[-80.0945,40.45134],[-80.09466,40.45194],[-80.09456,40.45336],[-80.09533,40.4575],[-80.09523,40.45911],[-80.09469,40.45968],[-80.09346,40.45983],[-80.08803,40.45974],[-80.08679,40.45986],[-80.08392,40.45947]]]}},{"type":"Feature","properties":{"id":"brookline","name":"Brookline","lat":40.39645,"lon":-80.01256,"area_sqkm":5.41,"population":13513,"density_per_sqkm":2498,"population_profile":"Brookline","combined_profile":false},"geometry":{"type":"Polygon","coordinates":[[[-80.00266,40.40414],[-80.00161,40.40192],[-80.00062,40.40208],[-79.99998,40.39865],[-79.9973,40.39513],[-79.99731,40.393],[-79.99791,40.39219],[-79.99784,40.38975],[-79.9994,40.38989],[-79.9992,40.38893],[-80.00217,40.3882],[-80.00277,40.38872],[-80.00465,40.38837],[-80.00588,40.38838],[-80.00591,40.38882],[-80.00678,40.38885],[-80.00695,40.38904],[-80.00743,40.38884],[-80.00701,40.38848],[-80.00777,40.38824],[-80.00745,40.38753],[-80.00769,40.38723],[-80.006,40.38404],[-80.00597,40.38362],[-80.00768,40.38302],[-80.00716,40.38154],[-80.00736,40.38091],[-80.00769,40.38114],[-80.00814,40.38088],[-80.00895,40.38114],[-80.00903,40.38102],[-80.01003,40.38093],[-80.01039,40.38045],[-80.01258,40.3809],[-80.01318,40.38284],[-80.01232,40.38304],[-80.01258,40.38307],[-80.0125,40.38341],[-80.01339,40.38349],[-80.01416,40.38577],[-80.01361,40.38571],[-80.01357,40.3861],[-80.01382,40.38657],[-80.01642,40.38514],[-80.01711,40.38632],[-80.01816,40.38646],[-80.01891,40.38682],[-80.02783,40.39161],[-80.02868,40.39127],[-80.03077,40.39501],[-80.0307,40.39536],[-80.03115,40.39662],[-80.02624,40.39832],[-80.02408,40.39991],[-80.02217,40.40175],[-80.01936,40.40406],[-80.0188,40.40536],[-80.01815,40.40776],[-80.01767,40.40857],[-80.01554,40.41044],[-80.01149,40.41169],[-80.01057,40.41225],[-80.00997,40.41309],[-80.00896,40.41251],[-80.00843,40.41196],[-80.00782,40.41066],[-80.00728,40.41006],[-80.00599,40.40929],[-80.00566,40.40873],[-80.00577,40.4071],[-80.00558,40.4065],[-80.00517,40.40602],[-80.00266,40.40414]]]}},{"type":"Feature","properties":{"id":"hays","name":"Hays","lat":40.39228,"lon":-79.94718,"area_sqkm":4.52,"population":6376,"density_per_sqkm":535,"population_profile":"Hazelwood-Glen Hazel - New Homestead-Hays","combined_profile":true},"geometry":{"type":"Polygon","coordinates":[[[-79.95613,40.41032],[-79.95612,40.40912],[-79.95665,40.40824],[-79.95663,40.40778],[-79.95597,40.40689],[-79.95604,40.40662],[-79.95492,40.40685],[-79.95329,40.40327],[-79.9535,40.40321],[-79.9532,40.40253],[-79.95292,40.40268],[-79.95256,40.40219],[-79.95284,40.40171],[-79.95152,40.40004],[-79.95106,40.40025],[-79.95061,40.39963],[-79.94738,40.39692],[-79.94608,40.39591],[-79.94494,40.39542],[-79.94531,40.39494],[-79.94439,40.39441],[-79.94387,40.39418],[-79.93816,40.39299],[-79.9388,40.39503],[-79.93672,40.39517],[-79.93739,40.39551],[-79.93762,40.39618],[-79.93326,40.39684],[-79.9329,40.3967],[-79.93236,40.39151],[-79.93119,40.39073],[-79.93134,40.38797],[-79.93201,40.38595],[-79.93197,40.38458],[-79.9316,40.38391],[-79.92934,40.38262],[-79.92551,40.37961],[-79.92672,40.37706],[-79.92682,40.37603],[-79.92658,40.37501],[-79.93944,40.37395],[-79.94274,40.37597],[-79.94367,40.37497],[-79.9455,40.37609],[-79.94334,40.37816],[-79.94406,40.37858],[-79.94316,40.37949],[-79.94289,40.37933],[-79.94254,40.37968],[-79.93828,40.38017],[-79.93548,40.38096],[-79.93553,40.38251],[-79.93539,40.38362],[-79.93613,40.38881],[-79.9421,40.38822],[-79.94365,40.38911],[-79.94384,40.38904],[-79.9444,40.39018],[-79.94634,40.39028],[-79.94729,40.39006],[-79.94921,40.3906],[-79.94916,40.39124],[-79.94951,40.39125],[-79.94953,40.39073],[-79.9501,40.39081],[-79.95244,40.39019],[-79.95403,40.39017],[-79.95492,40.38983],[-79.95774,40.38992],[-79.95805,40.3954],[-79.95993,40.39561],[-79.95952,40.39756],[-79.96299,40.39808],[-79.96348,40.39833],[-79.96391,40.39972],[-79.9648,40.39969],[-79.96906,40.40048],[-79.97087,40.40282],[-79.97096,40.40343],[-79.97074,40.40347],[-79.97011,40.40476],[-79.96589,40.40724],[-79.96389,40.40874],[-79.96357,40.4088],[-79.96303,40.40789],[-79.96223,40.40816],[-79.96136,40.40809],[-79.96091,40.40757],[-79.9604,40.40777],[-79.9601,40.40876],[-79.95931,40.40873],[-79.9593,40.40906],[-79.95907,40.40907],[-79.95905,40.40975],[-79.95659,40.41035],[-79.95613,40.41032]]]}},{"type":"Feature","properties":{"id":"beltzhoover","name":"Beltzhoover","lat":40.41652,"lon":-80.00337,"area_sqkm":1.08,"population":2770,"density_per_sqkm":1465,"population_profile":"Beltzhoover - Bon Air","combined_profile":true},"geometry":{"type":"Polygon","coordinates":[[[-80.00247,40.42178],[-79.99847,40.42173],[-79.99826,40.42145],[-79.9974,40.42166],[-79.99705,40.41389],[-79.99731,40.41313],[-79.99885,40.41196],[-79.99955,40.41178],[-80.00226,40.41198],[-80.00604,40.41111],[-80.00803,40.41309],[-80.01136,40.41508],[-80.01103,40.41589],[-80.01123,40.41709],[-80.01068,40.41785],[-80.00987,40.41835],[-80.00839,40.41974],[-80.00639,40.42054],[-80.00249,40.42104],[-80.00237,40.4211],[-80.00247,40.42178]]]}},{"type":"Feature","properties":{"id":"greenfield","name":"Greenfield","lat":40.42438,"lon":-79.93775,"area_sqkm":2.01,"population":6582,"density_per_sqkm":3282,"population_profile":"Greenfield","combined_profile":false},"geometry":{"type":"Polygon","coordinates":[[[-79.93905,40.42886],[-79.93637,40.42856],[-79.93168,40.42902],[-79.92944,40.42877],[-79.92676,40.42816],[-79.92816,40.42753],[-79.92687,40.42658],[-79.92671,40.42586],[-79.92574,40.42543],[-79.92629,40.42355],[-79.9261,40.41955],[-79.92715,40.41962],[-79.92678,40.41892],[-79.92814,40.41911],[-79.92817,40.41969],[-79.92922,40.41976],[-79.92916,40.41895],[-79.93221,40.41896],[-79.93231,40.41984],[-79.93383,40.4198],[-79.93761,40.41917],[-79.94104,40.41888],[-79.94756,40.422],[-79.94951,40.4251],[-79.95008,40.42489],[-79.95065,40.42508],[-79.95104,40.42492],[-79.95088,40.42519],[-79.94984,40.42567],[-79.9508,40.4255],[-79.95229,40.42491],[-79.95224,40.42544],[-79.95196,40.42602],[-79.95008,40.42807],[-79.94966,40.4292],[-79.9494,40.42889],[-79.94912,40.42913],[-79.94685,40.42848],[-79.94347,40.42927],[-79.94314,40.42966],[-79.94186,40.43011],[-79.94005,40.42982],[-79.94014,40.42952],[-79.93905,40.42886]]]}},{"type":"Feature","properties":{"id":"east_carnegie","name":"East Carnegie","lat":40.42025,"lon":-80.07461,"area_sqkm":1.12,"population":1563,"density_per_sqkm":880,"population_profile":"East Carnegie - Oakwood","combined_profile":true},"geometry":{"type":"Polygon","coordinates":[[[-80.07233,40.42462],[-80.06848,40.42248],[-80.06736,40.42129],[-80.06727,40.42069],[-80.06689,40.42063],[-80.0661,40.41731],[-80.06656,40.41667],[-80.06767,40.41609],[-80.07178,40.41573],[-80.07281,40.41425],[-80.07387,40.41341],[-80.07668,40.41524],[-80.07715,40.41545],[-80.07736,40.41527],[-80.07866,40.41647],[-80.07716,40.4171],[-80.07603,40.41795],[-80.07481,40.42013],[-80.07486,40.42061],[-80.07565,40.42083],[-80.0796,40.42005],[-80.08157,40.42022],[-80.08269,40.42011],[-80.08451,40.42053],[-80.08542,40.42125],[-80.08575,40.4228],[-80.08555,40.42385],[-80.08052,40.42373],[-80.07432,40.42533],[-80.07372,40.42555],[-80.07321,40.42605],[-80.0726,40.42553],[-80.07233,40.42462]]]}},{"type":"Feature","properties":{"id":"north_shore","name":"North Shore","lat":40.4483,"lon":-80.00584,"area_sqkm":0.77,"population":1934,"density_per_sqkm":1404,"population_profile":"East Allegheny-North Shore","combined_profile":true},"geometry":{"type":"Polygon","coordinates":[[[-79.9918,40.45244],[-79.9932,40.45104],[-79.99585,40.44956],[-79.99857,40.44826],[-80.00357,40.44668],[-80.00526,40.44601],[-80.00606,40.446],[-80.01082,40.44511],[-80.01372,40.44489],[-80.01423,40.4447],[-80.01686,40.4449],[-80.01807,40.44889],[-80.01589,40.44883],[-80.01504,40.44834],[-80.01066,40.44826],[-80.01044,40.4483],[-80.01033,40.44891],[-80.00873,40.44925],[-80.00895,40.44996],[-80.00741,40.4495],[-80.00591,40.44948],[-79.99815,40.45109],[-79.99675,40.45174],[-79.99345,40.45383],[-79.9918,40.45244]]]}},{"type":"Feature","properties":{"id":"allentown","name":"Allentown","lat":40.42298,"lon":-79.99377,"area_sqkm":0.77,"population":1837,"density_per_sqkm":2388,"population_profile":"Allentown","combined_profile":false},"geometry":{"type":"Polygon","coordinates":[[[-79.99967,40.42813],[-79.99894,40.42847],[-79.99804,40.42831],[-79.99755,40.4284],[-79.99679,40.4282],[-79.99615,40.42781],[-79.99452,40.42734],[-79.99357,40.42651],[-79.99212,40.42631],[-79.99079,40.42558],[-79.99019,40.42492],[-79.98773,40.42487],[-79.98781,40.42426],[-79.98855,40.42332],[-79.98869,40.42285],[-79.98829,40.42279],[-79.9881,40.41854],[-79.99728,40.41827],[-79.99753,40.42573],[-79.99755,40.426],[-79.99776,40.42613],[-79.99745,40.42662],[-79.99802,40.42677],[-79.99783,40.42691],[-79.99803,40.42704],[-79.99822,40.4269],[-79.99845,40.42705],[-79.99825,40.42719],[-79.99844,40.42731],[-79.99898,40.42678],[-80.00073,40.4276],[-80.00384,40.42784],[-80.00143,40.42894],[-80.00034,40.42863],[-79.99967,40.42813]]]}},{"type":"Feature","properties":{"id":"bon_air","name":"Bon Air","lat":40.40771,"lon":-80.0012,"area_sqkm":0.82,"population":2770,"density_per_sqkm":1465,"population_profile":"Beltzhoover - Bon Air","combined_profile":true},"geometry":{"type":"Polygon","coordinates":[[[-80.00803,40.41309],[-80.00604,40.41111],[-80.00201,40.41201],[-79.99945,40.41179],[-79.99885,40.41196],[-79.9976,40.41288],[-79.99703,40.4137],[-79.9968,40.4114],[-79.99695,40.41102],[-79.99649,40.40171],[-79.99709,40.40159],[-79.99942,40.40166],[-79.99953,40.40219],[-80.00161,40.40192],[-80.00266,40.40414],[-80.00517,40.40602],[-80.00558,40.4065],[-80.00577,40.4071],[-80.00566,40.40873],[-80.00599,40.40929],[-80.00728,40.41006],[-80.00782,40.41066],[-80.00843,40.41196],[-80.00896,40.41251],[-80.00997,40.41309],[-80.00957,40.41403],[-80.00803,40.41309]]]}},{"type":"Feature","properties":{"id":"allegheny_west","name":"Allegheny West","lat":40.45079,"lon":-80.0144,"area_sqkm":0.38,"population":2315,"density_per_sqkm":2527,"population_profile":"Allegheny Center-Allegheny West","combined_profile":true},"geometry":{"type":"Polygon","coordinates":[[[-80.01457,40.45397],[-80.01402,40.45241],[-80.01319,40.45238],[-80.01112,40.45155],[-80.00963,40.45183],[-80.00873,40.44925],[-80.01033,40.44891],[-80.01044,40.4483],[-80.01066,40.44826],[-80.01504,40.44834],[-80.01589,40.44883],[-80.01807,40.44889],[-80.01943,40.45311],[-80.01457,40.45397]]]}},{"type":"Feature","properties":{"id":"crafton_heights","name":"Crafton Heights","lat":40.44503,"lon":-80.05259,"area_sqkm":1.95,"population":4094,"density_per_sqkm":2104,"population_profile":"Crafton Heights","combined_profile":false},"geometry":{"type":"Polygon","coordinates":[[[-80.04528,40.45043],[-80.04407,40.44801],[-80.04415,40.44691],[-80.04397,40.44615],[-80.04345,40.44575],[-80.0421,40.44546],[-80.04161,40.44498],[-80.04279,40.444],[-80.04326,40.44433],[-80.04579,40.44234],[-80.04531,40.44196],[-80.04512,40.44211],[-80.04513,40.44196],[-80.04588,40.44058],[-80.04743,40.43999],[-80.0473,40.43816],[-80.04922,40.43813],[-80.05095,40.43751],[-80.05236,40.43758],[-80.05358,40.43796],[-80.0576,40.43754],[-80.06122,40.44064],[-80.06092,40.44175],[-80.06051,40.44222],[-80.05537,40.44394],[-80.0585,40.4446],[-80.05996,40.44564],[-80.0621,40.44802],[-80.06284,40.44855],[-80.06,40.45066],[-80.05525,40.45212],[-80.05511,40.45254],[-80.05453,40.45261],[-80.05317,40.45234],[-80.05111,40.4515],[-80.04528,40.45043]]]}},{"type":"Feature","properties":{"id":"manchester","name":"Manchester","lat":40.45551,"lon":-80.02505,"area_sqkm":0.72,"population":2739,"density_per_sqkm":2132,"population_profile":"Manchester-California-Kirkbride","combined_profile":true},"geometry":{"type":"Polygon","coordinates":[[[-80.0206,40.45669],[-80.0189,40.45153],[-80.02499,40.45042],[-80.02517,40.45084],[-80.02665,40.45057],[-80.02681,40.45106],[-80.02729,40.45098],[-80.02743,40.45122],[-80.03059,40.46089],[-80.03135,40.46154],[-80.03134,40.46175],[-80.03078,40.46213],[-80.0298,40.46158],[-80.02463,40.45963],[-80.02345,40.45881],[-80.02346,40.45817],[-80.0206,40.45669]]]}},{"type":"Feature","properties":{"id":"marshall_shadeland","name":"Marshall-Shadeland","lat":40.46955,"lon":-80.03408,"area_sqkm":3.25,"population":4496,"density_per_sqkm":1384,"population_profile":"Marshall-Shadeland","combined_profile":false},"geometry":{"type":"MultiPolygon","coordinates":[[[[-80.02568,40.48276],[-80.02493,40.48178],[-80.02351,40.4794],[-80.026,40.47938],[-80.02598,40.47897],[-80.02581,40.4789],[-80.027,40.47769],[-80.02659,40.47746],[-80.0273,40.47674],[-80.02676,40.47643],[-80.02664,40.47648],[-80.02685,40.4766],[-80.02673,40.47671],[-80.02646,40.47655],[-80.02624,40.47665],[-80.02613,40.47656],[-80.02661,40.47634],[-80.02635,40.4762],[-80.02616,40.47637],[-80.02533,40.47621],[-80.02463,40.47658],[-80.01972,40.4766],[-80.01853,40.47727],[-80.01737,40.4773],[-80.01718,40.47232],[-80.02263,40.47218],[-80.0237,40.47118],[-80.02583,40.47062],[-80.02533,40.46902],[-80.02483,40.46567],[-80.02357,40.4644],[-80.02271,40.46379],[-80.02681,40.463],[-80.02889,40.46277],[-80.02942,40.46309],[-80.03134,40.46175],[-80.03135,40.46154],[-80.03213,40.46207],[-80.03591,40.46132],[-80.03814,40.46451],[-80.04254,40.46951],[-80.04349,40.47175],[-80.04374,40.47197],[-80.04373,40.47221],[-80.04416,40.47228],[-80.0447,40.47296],[-80.0448,40.47322],[-80.04468,40.47353],[-80.04508,40.47409],[-80.0459,40.47671],[-80.04646,40.47773],[-80.04304,40.47894],[-80.03845,40.47307],[-80.03771,40.47178],[-80.03744,40.47178],[-80.03718,40.472],[-80.03787,40.47287],[-80.03653,40.47491],[-80.03579,40.47468],[-80.03525,40.47417],[-80.03629,40.47317],[-80.0365,40.47263],[-80.03487,40.47415],[-80.03512,40.4751],[-80.03417,40.4758],[-80.03244,40.47647],[-80.03022,40.47648],[-80.02951,40.47753],[-80.02823,40.47806],[-80.02788,40.47835],[-80.02729,40.47988],[-80.02559,40.48075],[-80.02568,40.48276]]],[[[-80.0379,40.45562],[-80.03823,40.45571],[-80.04508,40.46209],[-80.04794,40.46404],[-80.04865,40.46502],[-80.04927,40.46615],[-80.04944,40.46772],[-80.0492,40.46876],[-80.04885,40.46934],[-80.04745,40.47078],[-80.04721,40.47071],[-80.04537,40.46845],[-80.04452,40.46766],[-80.04262,40.46524],[-80.04198,40.4646],[-80.04152,40.46443],[-80.03983,40.46248],[-80.03985,40.46223],[-80.03915,40.46138],[-80.03832,40.45979],[-80.0382,40.45861],[-80.03777,40.45744],[-80.03774,40.45638],[-80.0379,40.45562]]]]}},{"type":"Feature","properties":{"id":"highland_park","name":"Highland Park","lat":40.47769,"lon":-79.91715,"area_sqkm":3.03,"population":6605,"density_per_sqkm":2180,"population_profile":"Highland Park","combined_profile":false},"geometry":{"type":"Polygon","coordinates":[[[-79.91937,40.48821],[-79.91335,40.48664],[-79.91317,40.48687],[-79.91144,40.48637],[-79.91128,40.48646],[-79.90827,40.48562],[-79.90782,40.48534],[-79.90607,40.48524],[-79.90653,40.48394],[-79.90757,40.48394],[-79.90793,40.48363],[-79.90807,40.48252],[-79.90784,40.47965],[-79.90863,40.47029],[-79.90955,40.47019],[-79.91086,40.46908],[-79.91171,40.46861],[-79.91445,40.46747],[-79.91616,40.467],[-79.91695,40.46859],[-79.92124,40.46976],[-79.92835,40.47233],[-79.92832,40.47472],[-79.92859,40.47534],[-79.92763,40.47791],[-79.92734,40.481],[-79.92482,40.48191],[-79.92423,40.48324],[-79.92329,40.48437],[-79.92236,40.48533],[-79.92061,40.48657],[-79.92046,40.48679],[-79.92048,40.48726],[-79.92025,40.48742],[-79.91964,40.48732],[-79.91937,40.48821]]]}},{"type":"Feature","properties":{"id":"new_homestead","name":"New Homestead","lat":40.38793,"lon":-79.92255,"area_sqkm":2.05,"population":6376,"density_per_sqkm":535,"population_profile":"Hazelwood-Glen Hazel - New Homestead-Hays","combined_profile":true},"geometry":{"type":"Polygon","coordinates":[[[-79.91825,40.39931],[-79.9166,40.39861],[-79.9164,40.39879],[-79.91331,40.39698],[-79.91692,40.39393],[-79.9149,40.3934],[-79.91637,40.39137],[-79.91669,40.39151],[-79.91709,40.39092],[-79.91679,40.39079],[-79.91847,40.38848],[-79.91787,40.38804],[-79.91717,40.38472],[-79.9174,40.38452],[-79.91609,40.38212],[-79.91732,40.3816],[-79.91624,40.38009],[-79.91816,40.37939],[-79.91995,40.3781],[-79.9204,40.37805],[-79.92349,40.37915],[-79.92392,40.37907],[-79.92444,40.37922],[-79.92585,40.37983],[-79.92934,40.38262],[-79.9316,40.38391],[-79.93197,40.38458],[-79.93201,40.38595],[-79.93134,40.38797],[-79.93119,40.39073],[-79.92962,40.38974],[-79.91825,40.39931]]]}},{"type":"Feature","properties":{"id":"central_northside","name":"Central Northside","lat":40.45695,"lon":-80.01101,"area_sqkm":0.67,"population":2995,"density_per_sqkm":4453,"population_profile":"Central Northside","combined_profile":false},"geometry":{"type":"Polygon","coordinates":[[[-80.00874,40.46122],[-80.00845,40.4595],[-80.00777,40.45886],[-80.00684,40.45908],[-80.00296,40.45856],[-80.00224,40.45869],[-80.00157,40.45642],[-80.01943,40.45311],[-80.02011,40.45521],[-80.01825,40.45556],[-80.01808,40.45578],[-80.01535,40.4561],[-80.01642,40.45928],[-80.01536,40.45947],[-80.01545,40.45974],[-80.0129,40.46027],[-80.01021,40.4599],[-80.00889,40.46121],[-80.00874,40.46122]]]}},{"type":"Feature","properties":{"id":"polish_hill","name":"Polish Hill","lat":40.45765,"lon":-79.96624,"area_sqkm":0.66,"population":1115,"density_per_sqkm":1681,"population_profile":"Polish Hill","combined_profile":false},"geometry":{"type":"Polygon","coordinates":[[[-79.96808,40.46102],[-79.96716,40.46056],[-79.96664,40.46061],[-79.96608,40.45944],[-79.9582,40.46082],[-79.9571,40.46077],[-79.95594,40.46031],[-79.95716,40.45894],[-79.95722,40.45862],[-79.95708,40.45832],[-79.95798,40.45852],[-79.96042,40.45699],[-79.9643,40.45596],[-79.96601,40.4552],[-79.96601,40.45567],[-79.96831,40.455],[-79.97367,40.45285],[-79.97419,40.45338],[-79.97335,40.45418],[-79.97384,40.45474],[-79.97291,40.45562],[-79.97397,40.45646],[-79.97433,40.45646],[-79.97477,40.45622],[-79.97495,40.4563],[-79.96808,40.46102]]]}},{"type":"Feature","properties":{"id":"overbrook","name":"Overbrook","lat":40.38335,"lon":-79.997,"area_sqkm":2.17,"population":3597,"density_per_sqkm":1660,"population_profile":"Overbrook","combined_profile":false},"geometry":{"type":"Polygon","coordinates":[[[-79.99713,40.39568],[-79.9963,40.39445],[-79.99577,40.39452],[-79.99555,40.39436],[-79.99533,40.39316],[-79.99448,40.39322],[-79.99438,40.39254],[-79.99351,40.3926],[-79.99343,40.39227],[-79.99301,40.39215],[-79.99281,40.39134],[-79.99321,40.39141],[-79.99292,40.39022],[-79.99218,40.39035],[-79.99115,40.38912],[-79.99126,40.38836],[-79.99114,40.38778],[-79.99224,40.38745],[-79.99202,40.38537],[-79.99056,40.38567],[-79.99035,40.38503],[-79.99294,40.38448],[-79.99355,40.38392],[-79.99289,40.3838],[-79.99189,40.38397],[-79.98973,40.38401],[-79.98721,40.38445],[-79.98691,40.38374],[-79.98656,40.38184],[-79.98423,40.38158],[-79.98557,40.38072],[-79.98483,40.37956],[-79.98604,40.37783],[-79.99113,40.37893],[-79.9929,40.37861],[-79.99358,40.37833],[-79.99411,40.37693],[-79.994,40.37585],[-79.9944,40.37573],[-79.99495,40.37567],[-79.99805,40.37648],[-79.99913,40.37735],[-80.00063,40.37552],[-80.00144,40.37489],[-80.00378,40.3744],[-80.00413,40.37399],[-80.00561,40.37469],[-80.00671,40.37487],[-80.00614,40.3755],[-80.00536,40.37714],[-80.00487,40.37763],[-80.00173,40.37971],[-80.00334,40.38118],[-80.00366,40.38205],[-80.00512,40.38389],[-80.00643,40.38346],[-80.00597,40.38362],[-80.006,40.38404],[-80.00769,40.38723],[-80.00745,40.38753],[-80.00777,40.38824],[-80.00701,40.38848],[-80.00743,40.38884],[-80.00695,40.38904],[-80.00678,40.38885],[-80.00591,40.38882],[-80.00588,40.38838],[-80.00465,40.38837],[-80.00291,40.38873],[-80.00217,40.3882],[-79.9992,40.38893],[-79.9994,40.38989],[-79.99784,40.38975],[-79.99791,40.39219],[-79.99731,40.393],[-79.99722,40.39479],[-79.9974,40.39539],[-79.99713,40.39568]]]}},{"type":"Feature","properties":{"id":"friendship","name":"Friendship","lat":40.46098,"lon":-79.93438,"area_sqkm":0.28,"population":1935,"density_per_sqkm":7035,"population_profile":"Friendship","combined_profile":false},"geometry":{"type":"Polygon","coordinates":[[[-79.93068,40.4635],[-79.93407,40.45793],[-79.93426,40.45758],[-79.93406,40.45727],[-79.93649,40.45657],[-79.93706,40.45768],[-79.93608,40.46298],[-79.93583,40.46293],[-79.93511,40.46474],[-79.93452,40.46478],[-79.93068,40.4635]]]}},{"type":"Feature","properties":{"id":"homewood_west","name":"Homewood West","lat":40.45951,"lon":-79.90389,"area_sqkm":0.51,"population":3407,"density_per_sqkm":2095,"population_profile":"Homewood North - Homewood West","combined_profile":true},"geometry":{"type":"Polygon","coordinates":[[[-79.89903,40.46387],[-79.90223,40.4557],[-79.90285,40.45489],[-79.90614,40.45581],[-79.90789,40.45607],[-79.90955,40.4567],[-79.90606,40.46136],[-79.9056,40.46227],[-79.90562,40.4626],[-79.90419,40.46332],[-79.90063,40.46425],[-79.89903,40.46387]]]}},{"type":"Feature","properties":{"id":"central_business_district","name":"Central Business District","lat":40.4409,"lon":-80.00015,"area_sqkm":1.67,"population":7578,"density_per_sqkm":3262,"population_profile":"Downtown","combined_profile":true},"geometry":{"type":"Polygon","coordinates":[[[-79.99296,40.44497],[-79.99172,40.44504],[-79.99001,40.44595],[-79.99035,40.44464],[-79.99204,40.44221],[-79.99365,40.43909],[-79.99458,40.43588],[-79.99583,40.434],[-79.99728,40.43426],[-79.99879,40.43481],[-80.00079,40.43613],[-80.00944,40.43957],[-80.01289,40.4414],[-80.0133,40.44184],[-80.01316,40.44211],[-80.01289,40.44221],[-80.00233,40.44461],[-79.99908,40.44565],[-79.99544,40.44714],[-79.99425,40.44545],[-79.99296,40.44497]]]}},{"type":"Feature","properties":{"id":"east_allegheny","name":"East Allegheny","lat":40.45545,"lon":-79.99779,"area_sqkm":0.61,"population":1934,"density_per_sqkm":1404,"population_profile":"East Allegheny-North Shore","combined_profile":true},"geometry":{"type":"Polygon","coordinates":[[[-79.99488,40.4593],[-79.99548,40.45811],[-79.99459,40.45818],[-79.99131,40.45674],[-79.9931,40.4558],[-79.99467,40.45541],[-79.99445,40.45484],[-79.99343,40.45527],[-79.99293,40.45524],[-79.99228,40.45478],[-79.99345,40.45383],[-79.99758,40.45128],[-80.00121,40.45037],[-80.00134,40.45078],[-80.00091,40.45086],[-80.00262,40.45623],[-80.00157,40.45642],[-80.00224,40.45869],[-80.00083,40.45896],[-80.00098,40.45943],[-80.00005,40.45997],[-80.00005,40.45978],[-79.99973,40.45989],[-79.99941,40.45861],[-79.99746,40.45902],[-79.99647,40.45931],[-79.99518,40.45996],[-79.99319,40.46123],[-79.99407,40.46042],[-79.99488,40.4593]]]}},{"type":"Feature","properties":{"id":"allegheny_center","name":"Allegheny Center","lat":40.45275,"lon":-80.00673,"area_sqkm":0.54,"population":2315,"density_per_sqkm":2527,"population_profile":"Allegheny Center-Allegheny West","combined_profile":true},"geometry":{"type":"Polygon","coordinates":[[[-80.00262,40.45623],[-80.00091,40.45086],[-80.00134,40.45078],[-80.00121,40.45037],[-80.00534,40.44955],[-80.00741,40.4495],[-80.00895,40.44996],[-80.00963,40.45183],[-80.01112,40.45155],[-80.01319,40.45238],[-80.01402,40.45241],[-80.01457,40.45397],[-80.00262,40.45623]]]}},{"type":"Feature","properties":{"id":"central_oakland","name":"Central Oakland","lat":40.43863,"lon":-79.95468,"area_sqkm":0.73,"population":5418,"density_per_sqkm":7470,"population_profile":"Central Oakland","combined_profile":false},"geometry":{"type":"Polygon","coordinates":[[[-79.95304,40.44203],[-79.95266,40.44182],[-79.95229,40.44224],[-79.95168,40.44242],[-79.95035,40.44196],[-79.94896,40.44119],[-79.94948,40.44058],[-79.94984,40.43982],[-79.94958,40.43651],[-79.94986,40.43444],[-79.95222,40.43425],[-79.95473,40.43462],[-79.95641,40.43513],[-79.95817,40.43583],[-79.95842,40.43619],[-79.96207,40.43914],[-79.95744,40.44252],[-79.95644,40.44196],[-79.95539,40.44269],[-79.95355,40.44318],[-79.95304,40.44203]]]}},{"type":"Feature","properties":{"id":"brighton_heights","name":"Brighton Heights","lat":40.48336,"lon":-80.03691,"area_sqkm":2.89,"population":7023,"density_per_sqkm":2428,"population_profile":"Brighton Heights","combined_profile":false},"geometry":{"type":"Polygon","coordinates":[[[-80.04072,40.49146],[-80.03749,40.49007],[-80.03576,40.49094],[-80.02779,40.49111],[-80.02505,40.48575],[-80.0257,40.48266],[-80.02561,40.48071],[-80.02729,40.47988],[-80.02788,40.47835],[-80.02823,40.47806],[-80.02951,40.47753],[-80.03022,40.47648],[-80.03244,40.47647],[-80.03403,40.47588],[-80.03495,40.47524],[-80.03512,40.4751],[-80.03487,40.47415],[-80.0365,40.47263],[-80.03629,40.47317],[-80.03525,40.47417],[-80.03579,40.47468],[-80.03653,40.47491],[-80.03787,40.47287],[-80.03718,40.472],[-80.03744,40.47178],[-80.03771,40.47178],[-80.03845,40.47307],[-80.04304,40.47894],[-80.04646,40.47773],[-80.04711,40.47911],[-80.04771,40.47998],[-80.04956,40.48191],[-80.05145,40.48352],[-80.05001,40.48479],[-80.04983,40.48563],[-80.0486,40.48643],[-80.04793,40.48631],[-80.04683,40.48717],[-80.04669,40.48704],[-80.04645,40.48717],[-80.04072,40.49146]]]}},{"type":"Feature","properties":{"id":"south_side_slopes","name":"South Side Slopes","lat":40.42171,"lon":-79.97723,"area_sqkm":1.87,"population":4085,"density_per_sqkm":2181,"population_profile":"South Side Slopes","combined_profile":false},"geometry":{"type":"Polygon","coordinates":[[[-79.99881,40.42976],[-79.98628,40.42576],[-79.97211,40.42489],[-79.96598,40.42414],[-79.96496,40.42374],[-79.96129,40.42126],[-79.96143,40.42113],[-79.96162,40.42125],[-79.96273,40.42033],[-79.96257,40.4202],[-79.96304,40.41929],[-79.9636,40.41903],[-79.96404,40.41827],[-79.96511,40.41744],[-79.96644,40.41722],[-79.97091,40.41766],[-79.9757,40.41714],[-79.97603,40.41717],[-79.97676,40.41776],[-79.97887,40.41796],[-79.98061,40.41773],[-79.98637,40.41756],[-79.98819,40.41852],[-79.98804,40.41898],[-79.98829,40.42279],[-79.98869,40.42285],[-79.98855,40.42332],[-79.98781,40.42426],[-79.98773,40.42487],[-79.99019,40.42492],[-79.99079,40.42558],[-79.99212,40.42631],[-79.99357,40.42651],[-79.99452,40.42734],[-79.99615,40.42781],[-79.99806,40.42892],[-79.99866,40.42892],[-79.99927,40.42915],[-79.99881,40.42976]]]}},{"type":"Feature","properties":{"id":"arlington","name":"Arlington","lat":40.41446,"lon":-79.96775,"area_sqkm":1.24,"population":3200,"density_per_sqkm":1209,"population_profile":"Arlington - Arlington Heights - Mount Oliver (City Neighborhood) - St. Clair","combined_profile":true},"geometry":{"type":"Polygon","coordinates":[[[-79.96113,40.42115],[-79.9579,40.41901],[-79.95642,40.41701],[-79.9559,40.4154],[-79.95576,40.41428],[-79.95584,40.41095],[-79.95526,40.41107],[-79.9551,40.41055],[-79.95598,40.41047],[-79.95679,40.41064],[-79.95906,40.40979],[-79.96015,40.40992],[-79.96283,40.40968],[-79.96377,40.40951],[-79.96442,40.40918],[-79.96448,40.4097],[-79.96488,40.41014],[-79.96804,40.41186],[-79.96931,40.41187],[-79.97352,40.41266],[-79.97562,40.41325],[-79.97797,40.41423],[-79.9818,40.41411],[-79.98189,40.41611],[-79.98219,40.41609],[-79.98226,40.41767],[-79.97835,40.41793],[-79.97676,40.41776],[-79.97603,40.41717],[-79.9757,40.41714],[-79.97091,40.41766],[-79.96707,40.41719],[-79.96568,40.41735],[-79.96531,40.41513],[-79.96235,40.41515],[-79.96061,40.41476],[-79.96039,40.41462],[-79.96027,40.4128],[-79.95839,40.41245],[-79.95832,40.41302],[-79.95774,40.41243],[-79.95725,40.41253],[-79.95729,40.41472],[-79.95753,40.41518],[-79.95781,40.4169],[-79.9587,40.41657],[-79.9591,40.41719],[-79.95929,40.41718],[-79.95845,40.41781],[-79.95949,40.41865],[-79.96023,40.41807],[-79.96177,40.41926],[-79.961,40.42026],[-79.96201,40.42092],[-79.96162,40.42125],[-79.96113,40.42115]]]}},{"type":"Feature","properties":{"id":"chartiers_city","name":"Chartiers City","lat":40.4578,"lon":-80.07055,"area_sqkm":0.35,"population":8808,"density_per_sqkm":1289,"population_profile":"Esplen-Sheraden-Chartiers City- Windgap-Fairywood","combined_profile":true},"geometry":{"type":"Polygon","coordinates":[[[-80.06996,40.46048],[-80.06899,40.46045],[-80.06697,40.45979],[-80.06746,40.45791],[-80.0669,40.45735],[-80.06735,40.45716],[-80.0671,40.45688],[-80.06695,40.45608],[-80.07216,40.45328],[-80.072,40.45428],[-80.07296,40.4556],[-80.07324,40.45798],[-80.07322,40.46087],[-80.07589,40.46184],[-80.07544,40.46268],[-80.07388,40.46157],[-80.06996,40.46048]]]}},{"type":"Feature","properties":{"id":"carrick","name":"Carrick","lat":40.39495,"lon":-79.98606,"area_sqkm":4.32,"population":9156,"density_per_sqkm":2117,"population_profile":"Carrick","combined_profile":false},"geometry":{"type":"Polygon","coordinates":[[[-79.99191,40.40718],[-79.98767,40.40608],[-79.98146,40.40586],[-79.98109,40.40785],[-79.98048,40.40717],[-79.97862,40.40639],[-79.97788,40.40571],[-79.9759,40.40438],[-79.97931,40.40195],[-79.97981,40.4013],[-79.98001,40.40044],[-79.97974,40.39947],[-79.97579,40.39313],[-79.97391,40.39344],[-79.97364,40.39276],[-79.97323,40.39279],[-79.97304,40.39247],[-79.97357,40.39221],[-79.97325,40.39085],[-79.97309,40.38872],[-79.97542,40.38829],[-79.97576,40.38722],[-79.97408,40.3848],[-79.97648,40.38539],[-79.97765,40.38415],[-79.97685,40.38285],[-79.97615,40.38131],[-79.97676,40.38115],[-79.9771,40.38123],[-79.97735,40.38131],[-79.97765,40.38175],[-79.97803,40.38185],[-79.98195,40.38065],[-79.98276,40.38149],[-79.98335,40.38152],[-79.98483,40.37956],[-79.98557,40.38072],[-79.98423,40.38158],[-79.98656,40.38184],[-79.98691,40.38374],[-79.98721,40.38445],[-79.98973,40.38401],[-79.99189,40.38397],[-79.99289,40.3838],[-79.99355,40.38392],[-79.99294,40.38448],[-79.99035,40.38503],[-79.99056,40.38567],[-79.99202,40.38537],[-79.99224,40.38745],[-79.99114,40.38778],[-79.99126,40.38836],[-79.99115,40.38912],[-79.99218,40.39035],[-79.99292,40.39022],[-79.99321,40.39141],[-79.99281,40.39134],[-79.99301,40.39215],[-79.99343,40.39227],[-79.99351,40.3926],[-79.99438,40.39254],[-79.99448,40.39322],[-79.99533,40.39316],[-79.99555,40.39436],[-79.99577,40.39452],[-79.9963,40.39445],[-79.99713,40.39568],[-79.9974,40.39539],[-79.99962,40.39801],[-80.00013,40.39903],[-80.00062,40.40208],[-79.99953,40.40219],[-79.99942,40.40166],[-79.99898,40.40161],[-79.99649,40.40171],[-79.99675,40.40817],[-79.99191,40.40718]]]}},{"type":"Feature","properties":{"id":"bloomfield","name":"Bloomfield","lat":40.46042,"lon":-79.9462,"area_sqkm":1.82,"population":8520,"density_per_sqkm":4686,"population_profile":"Bloomfield","combined_profile":false},"geometry":{"type":"Polygon","coordinates":[[[-79.95193,40.46618],[-79.93939,40.46454],[-79.93511,40.46474],[-79.93583,40.46293],[-79.93608,40.46298],[-79.93706,40.45768],[-79.93649,40.45657],[-79.9415,40.45505],[-79.94199,40.45595],[-79.94288,40.45568],[-79.94428,40.45526],[-79.94309,40.45457],[-79.94969,40.45259],[-79.94978,40.45312],[-79.95148,40.45735],[-79.95299,40.45764],[-79.95375,40.45803],[-79.95594,40.46031],[-79.95364,40.46276],[-79.95397,40.46291],[-79.95717,40.46239],[-79.95796,40.46519],[-79.95193,40.46618]]]}},{"type":"Feature","properties":{"id":"banksville","name":"Banksville","lat":40.41031,"lon":-80.0393,"area_sqkm":2.53,"population":3750,"density_per_sqkm":1481,"population_profile":"Banksville","combined_profile":false},"geometry":{"type":"Polygon","coordinates":[[[-80.02959,40.42244],[-80.02989,40.41592],[-80.03011,40.41429],[-80.0313,40.41078],[-80.03238,40.40859],[-80.03303,40.40771],[-80.03421,40.40697],[-80.03378,40.40618],[-80.03505,40.40586],[-80.03552,40.40524],[-80.0363,40.40529],[-80.03635,40.40427],[-80.03977,40.40133],[-80.04208,40.39975],[-80.04194,40.39939],[-80.04505,40.39905],[-80.05121,40.40195],[-80.03962,40.42068],[-80.03501,40.42005],[-80.03364,40.42011],[-80.03254,40.42043],[-80.03134,40.42127],[-80.03076,40.42211],[-80.03057,40.42334],[-80.03092,40.42492],[-80.03031,40.42451],[-80.02995,40.42394],[-80.02959,40.42244]]]}},{"type":"Feature","properties":{"id":"mount_washington","name":"Mount Washington","lat":40.42656,"lon":-80.01073,"area_sqkm":2.93,"population":8711,"density_per_sqkm":2970,"population_profile":"Mount Washington","combined_profile":false},"geometry":{"type":"Polygon","coordinates":[[[-80.00561,40.43172],[-79.99866,40.42892],[-79.99806,40.42892],[-79.99679,40.4282],[-79.99755,40.4284],[-79.99804,40.42831],[-79.99894,40.42847],[-79.99967,40.42813],[-80.00034,40.42863],[-80.00143,40.42894],[-80.00384,40.42784],[-80.00073,40.4276],[-79.99898,40.42678],[-79.99844,40.42731],[-79.99825,40.42719],[-79.99845,40.42705],[-79.99822,40.4269],[-79.99803,40.42704],[-79.99783,40.42691],[-79.99802,40.42677],[-79.99745,40.42662],[-79.99776,40.42613],[-79.99755,40.42595],[-79.9974,40.42166],[-79.99826,40.42145],[-79.99847,40.42173],[-80.00247,40.42178],[-80.00237,40.4211],[-80.00249,40.42104],[-80.00639,40.42054],[-80.00839,40.41974],[-80.00987,40.41835],[-80.01068,40.41785],[-80.01123,40.41709],[-80.01103,40.41589],[-80.01136,40.41508],[-80.00957,40.41403],[-80.00997,40.41309],[-80.01105,40.41358],[-80.01381,40.41437],[-80.01477,40.41493],[-80.01528,40.41561],[-80.01615,40.41806],[-80.01624,40.41882],[-80.01612,40.41992],[-80.0164,40.42086],[-80.01779,40.42236],[-80.0196,40.42399],[-80.02111,40.42342],[-80.02143,40.42367],[-80.02145,40.42461],[-80.02098,40.42546],[-80.02108,40.42574],[-80.02082,40.42573],[-80.02062,40.42619],[-80.01798,40.43481],[-80.01918,40.43499],[-80.01902,40.4354],[-80.01829,40.43629],[-80.01883,40.43638],[-80.01859,40.43737],[-80.01823,40.43778],[-80.01893,40.43815],[-80.01773,40.43974],[-80.01648,40.43923],[-80.0164,40.43814],[-80.01537,40.43768],[-80.01383,40.4376],[-80.01345,40.4372],[-80.01362,40.437],[-80.01259,40.43611],[-80.01161,40.43576],[-80.00581,40.43208],[-80.00561,40.43172]]]}},{"type":"Feature","properties":{"id":"east_hills","name":"East Hills","lat":40.45388,"lon":-79.87531,"area_sqkm":1.4,"population":3994,"density_per_sqkm":2853,"population_profile":"East Hills","combined_profile":false},"geometry":{"type":"Polygon","coordinates":[[[-79.87535,40.4598],[-79.87451,40.45927],[-79.87314,40.46043],[-79.87229,40.46089],[-79.87058,40.4612],[-79.86911,40.46098],[-79.86923,40.46053],[-79.87064,40.46076],[-79.8717,40.46057],[-79.87162,40.4584],[-79.87265,40.45746],[-79.86585,40.45575],[-79.86714,40.4494],[-79.87269,40.44937],[-79.87832,40.44993],[-79.88403,40.44893],[-79.88478,40.45186],[-79.88522,40.45256],[-79.88518,40.45288],[-79.88595,40.45508],[-79.88409,40.45549],[-79.88094,40.45506],[-79.87971,40.45534],[-79.87769,40.4571],[-79.8788,40.4583],[-79.87924,40.45916],[-79.87737,40.45897],[-79.87728,40.45939],[-79.8775,40.45942],[-79.8774,40.45984],[-79.8763,40.45971],[-79.87691,40.46161],[-79.87553,40.46156],[-79.87565,40.45996],[-79.87521,40.45991],[-79.87535,40.4598]]]}},{"type":"Feature","properties":{"id":"central_lawrenceville","name":"Central Lawrenceville","lat":40.47286,"lon":-79.95364,"area_sqkm":2.49,"population":4654,"density_per_sqkm":1872,"population_profile":"Central Lawrenceville","combined_profile":false},"geometry":{"type":"Polygon","coordinates":[[[-79.95981,40.48132],[-79.95596,40.47852],[-79.95398,40.47731],[-79.95239,40.47764],[-79.95091,40.47742],[-79.94911,40.4782],[-79.94657,40.4776],[-79.94442,40.47865],[-79.93837,40.47412],[-79.93653,40.47428],[-79.93652,40.47411],[-79.93494,40.47255],[-79.93782,40.47306],[-79.93909,40.47309],[-79.9445,40.47164],[-79.94647,40.47],[-79.94734,40.46869],[-79.94725,40.46798],[-79.94612,40.46697],[-79.94645,40.46547],[-79.95193,40.46618],[-79.95796,40.46519],[-79.96385,40.46994],[-79.96715,40.47187],[-79.96561,40.47396],[-79.96564,40.4744],[-79.96536,40.47462],[-79.96481,40.47558],[-79.96445,40.47578],[-79.96187,40.47971],[-79.96017,40.48112],[-79.95981,40.48132]]]}},{"type":"Feature","properties":{"id":"west_end","name":"West End","lat":40.43718,"lon":-80.03437,"area_sqkm":0.5,"population":2639,"density_per_sqkm":1273,"population_profile":"West End - Elliott","combined_profile":true},"geometry":{"type":"Polygon","coordinates":[[[-80.0287,40.44454],[-80.02775,40.44394],[-80.0285,40.44395],[-80.0296,40.44282],[-80.02961,40.44264],[-80.03254,40.4398],[-80.0329,40.439],[-80.03303,40.43666],[-80.03289,40.43621],[-80.03231,40.43547],[-80.02858,40.43339],[-80.0263,40.43102],[-80.02804,40.43008],[-80.03214,40.43254],[-80.03459,40.43374],[-80.03604,40.43392],[-80.03784,40.43362],[-80.03764,40.43412],[-80.03721,40.43454],[-80.03584,40.4347],[-80.03677,40.43509],[-80.03668,40.4354],[-80.03885,40.43601],[-80.03863,40.43641],[-80.03639,40.43575],[-80.0359,40.43583],[-80.03569,40.43661],[-80.03565,40.43768],[-80.03523,40.43872],[-80.03516,40.43934],[-80.0352,40.43969],[-80.03571,40.44059],[-80.03711,40.44072],[-80.03705,40.44129],[-80.03655,40.44129],[-80.03544,40.44167],[-80.03566,40.44211],[-80.03316,40.44305],[-80.03281,40.44263],[-80.0287,40.44454]]]}},{"type":"Feature","properties":{"id":"esplen","name":"Esplen","lat":40.46112,"lon":-80.05487,"area_sqkm":0.6,"population":8808,"density_per_sqkm":1289,"population_profile":"Esplen-Sheraden-Chartiers City- Windgap-Fairywood","combined_profile":true},"geometry":{"type":"Polygon","coordinates":[[[-80.05196,40.4643],[-80.05069,40.4626],[-80.04145,40.45558],[-80.03898,40.45315],[-80.0399,40.45262],[-80.04097,40.45341],[-80.04192,40.45472],[-80.04373,40.4562],[-80.04837,40.45875],[-80.05181,40.46101],[-80.05252,40.46131],[-80.05357,40.46135],[-80.05584,40.4607],[-80.05739,40.4606],[-80.05838,40.46075],[-80.06205,40.46188],[-80.06947,40.46043],[-80.07327,40.46132],[-80.0744,40.46188],[-80.07544,40.46268],[-80.07489,40.46369],[-80.07234,40.46138],[-80.06953,40.46083],[-80.06855,40.46079],[-80.06691,40.46131],[-80.0645,40.46246],[-80.0634,40.46282],[-80.06084,40.46419],[-80.06011,40.46415],[-80.05849,40.46345],[-80.05814,40.46344],[-80.05504,40.46456],[-80.05239,40.46526],[-80.05196,40.4643]]]}},{"type":"Feature","properties":{"id":"point_breeze","name":"Point Breeze","lat":40.44571,"lon":-79.90766,"area_sqkm":2.6,"population":6397,"density_per_sqkm":2059,"population_profile":"Point Breeze-Regent Square","combined_profile":true},"geometry":{"type":"Polygon","coordinates":[[[-79.90866,40.45167],[-79.89323,40.4465],[-79.89469,40.43984],[-79.90175,40.43941],[-79.90535,40.4381],[-79.91309,40.43804],[-79.91165,40.4467],[-79.91234,40.44674],[-79.91413,40.44636],[-79.91585,40.4447],[-79.92052,40.44386],[-79.92159,40.44752],[-79.92027,40.45096],[-79.92072,40.4529],[-79.91243,40.45404],[-79.90985,40.45228],[-79.90866,40.45167]]]}},{"type":"Feature","properties":{"id":"hazelwood","name":"Hazelwood","lat":40.41258,"lon":-79.94136,"area_sqkm":4.16,"population":6376,"density_per_sqkm":535,"population_profile":"Hazelwood-Glen Hazel - New Homestead-Hays","combined_profile":true},"geometry":{"type":"Polygon","coordinates":[[[-79.95774,40.42996],[-79.95663,40.42888],[-79.95628,40.42912],[-79.95508,40.42817],[-79.95354,40.42757],[-79.95183,40.4274],[-79.95043,40.42761],[-79.95196,40.42602],[-79.95224,40.42544],[-79.95229,40.42491],[-79.9508,40.4255],[-79.94984,40.42567],[-79.95088,40.42519],[-79.95104,40.42492],[-79.95065,40.42508],[-79.95008,40.42489],[-79.94951,40.4251],[-79.94756,40.422],[-79.94104,40.41888],[-79.93761,40.41917],[-79.93383,40.4198],[-79.93231,40.41984],[-79.93221,40.41896],[-79.92916,40.41895],[-79.92922,40.41976],[-79.92817,40.41969],[-79.92814,40.41911],[-79.92678,40.41892],[-79.9264,40.4185],[-79.92603,40.41789],[-79.92578,40.4166],[-79.92491,40.41546],[-79.92497,40.41506],[-79.92343,40.41374],[-79.92353,40.41355],[-79.92285,40.41294],[-79.92289,40.41279],[-79.9226,40.41274],[-79.92292,40.4115],[-79.92518,40.41045],[-79.92608,40.4105],[-79.92696,40.41024],[-79.92723,40.41034],[-79.92736,40.41064],[-79.9296,40.40966],[-79.93056,40.41137],[-79.93726,40.40985],[-79.93687,40.40856],[-79.93707,40.40851],[-79.93727,40.40794],[-79.93718,40.40788],[-79.93739,40.4076],[-79.93636,40.40714],[-79.93546,40.4065],[-79.93651,40.40515],[-79.93526,40.40483],[-79.93535,40.40344],[-79.93594,40.40301],[-79.93732,40.40075],[-79.93787,40.4002],[-79.93803,40.40024],[-79.93769,40.40007],[-79.93594,40.39983],[-79.93563,40.3986],[-79.93641,40.39865],[-79.9368,40.39835],[-79.93784,40.39822],[-79.94127,40.39838],[-79.94318,40.39886],[-79.94461,40.39948],[-79.94702,40.40119],[-79.94955,40.40426],[-79.95013,40.4054],[-79.95048,40.40715],[-79.95073,40.40732],[-79.95126,40.40955],[-79.95103,40.40975],[-79.95133,40.40994],[-79.95154,40.41194],[-79.95184,40.41312],[-79.95174,40.41698],[-79.95201,40.41965],[-79.95242,40.42108],[-79.95351,40.42318],[-79.9546,40.42462],[-79.95627,40.4264],[-79.95945,40.42898],[-79.95774,40.42996]]]}},{"type":"Feature","properties":{"id":"crawford_roberts","name":"Crawford-Roberts","lat":40.44212,"lon":-79.98531,"area_sqkm":0.65,"population":7578,"density_per_sqkm":3262,"population_profile":"Downtown","combined_profile":true},"geometry":{"type":"Polygon","coordinates":[[[-79.98278,40.44645],[-79.98243,40.4465],[-79.98035,40.44364],[-79.98001,40.44388],[-79.97928,40.44288],[-79.97968,40.44271],[-79.97921,40.44217],[-79.97888,40.44108],[-79.97832,40.44066],[-79.97867,40.44032],[-79.97788,40.43936],[-79.97538,40.43921],[-79.97755,40.43824],[-79.99371,40.43893],[-79.99204,40.44221],[-79.99037,40.4446],[-79.9839,40.44853],[-79.98366,40.44765],[-79.98278,40.44645]]]}},{"type":"Feature","properties":{"id":"south_oakland","name":"South Oakland","lat":40.43323,"lon":-79.95989,"area_sqkm":1.25,"population":3280,"density_per_sqkm":2617,"population_profile":"South Oakland","combined_profile":false},"geometry":{"type":"Polygon","coordinates":[[[-79.95899,40.43665],[-79.95817,40.43583],[-79.95473,40.43462],[-79.95187,40.43423],[-79.94986,40.43444],[-79.94966,40.4292],[-79.94992,40.42835],[-79.95043,40.42761],[-79.95237,40.4274],[-79.95392,40.42767],[-79.95508,40.42817],[-79.95628,40.42912],[-79.95663,40.42888],[-79.95774,40.42996],[-79.95945,40.42898],[-79.9624,40.43097],[-79.96501,40.43226],[-79.9685,40.43346],[-79.97341,40.43428],[-79.97265,40.4377],[-79.9688,40.43646],[-79.96671,40.43648],[-79.96591,40.43684],[-79.96534,40.43767],[-79.96381,40.4379],[-79.96207,40.43914],[-79.95899,40.43665]]]}},{"type":"Feature","properties":{"id":"upper_hill","name":"Upper Hill","lat":40.45319,"lon":-79.9598,"area_sqkm":0.81,"population":1550,"density_per_sqkm":1911,"population_profile":"Upper Hill","combined_profile":false},"geometry":{"type":"Polygon","coordinates":[[[-79.95722,40.45866],[-79.95579,40.45808],[-79.95528,40.45731],[-79.9541,40.45337],[-79.95416,40.45282],[-79.95491,40.45098],[-79.95876,40.44837],[-79.95925,40.44832],[-79.96235,40.44889],[-79.96487,40.44878],[-79.96538,40.45016],[-79.96436,40.45197],[-79.96436,40.45222],[-79.96575,40.45376],[-79.96601,40.4552],[-79.9643,40.45596],[-79.96042,40.45699],[-79.95798,40.45852],[-79.95708,40.45832],[-79.95722,40.45866]]]}},{"type":"Feature","properties":{"id":"ridgemont","name":"Ridgemont","lat":40.42708,"lon":-80.03449,"area_sqkm":0.93,"population":3647,"density_per_sqkm":1344,"population_profile":"Westwood - Ridgemont","combined_profile":true},"geometry":{"type":"Polygon","coordinates":[[[-80.02804,40.43008],[-80.0297,40.42893],[-80.03075,40.42734],[-80.03104,40.42605],[-80.0306,40.42367],[-80.03065,40.42248],[-80.03113,40.4215],[-80.03188,40.4208],[-80.03295,40.42028],[-80.03431,40.42004],[-80.03962,40.42068],[-80.03483,40.42837],[-80.03747,40.42855],[-80.03837,40.42785],[-80.0407,40.42869],[-80.04011,40.42906],[-80.03984,40.42942],[-80.03879,40.432],[-80.03815,40.43287],[-80.03784,40.43362],[-80.03604,40.43392],[-80.03459,40.43374],[-80.03214,40.43254],[-80.02804,40.43008]]]}},{"type":"Feature","properties":{"id":"troy_hill","name":"Troy Hill","lat":40.46281,"lon":-79.98302,"area_sqkm":1.19,"population":3766,"density_per_sqkm":1997,"population_profile":"Troy Hill - Spring Garden","combined_profile":true},"geometry":{"type":"MultiPolygon","coordinates":[[[[-79.9788,40.47162],[-79.97455,40.46947],[-79.97616,40.46823],[-79.97783,40.46634],[-79.97916,40.46466],[-79.97916,40.46442],[-79.98053,40.46227],[-79.98265,40.45961],[-79.98431,40.45809],[-79.98889,40.45489],[-79.9918,40.45244],[-79.99345,40.45383],[-79.99228,40.45478],[-79.99293,40.45524],[-79.99343,40.45527],[-79.99445,40.45484],[-79.99467,40.45541],[-79.9931,40.4558],[-79.99131,40.45674],[-79.9929,40.45746],[-79.99257,40.458],[-79.9925,40.45873],[-79.99014,40.45937],[-79.98814,40.4597],[-79.9877,40.45995],[-79.98737,40.46022],[-79.98748,40.46064],[-79.98738,40.46087],[-79.98655,40.46208],[-79.98546,40.46317],[-79.98516,40.46368],[-79.98597,40.46404],[-79.98529,40.46613],[-79.98446,40.46606],[-79.98385,40.46635],[-79.98296,40.46727],[-79.98182,40.46935],[-79.9797,40.47078],[-79.9788,40.47162]]],[[[-79.98109,40.46011],[-79.98116,40.4604],[-79.98093,40.46088],[-79.9772,40.46648],[-79.97571,40.46811],[-79.97347,40.4698],[-79.97277,40.47012],[-79.97248,40.47008],[-79.97244,40.46973],[-79.97319,40.4684],[-79.97498,40.46556],[-79.9761,40.46416],[-79.97907,40.46137],[-79.9804,40.46038],[-79.98109,40.46011]]]]}},{"type":"Feature","properties":{"id":"south_shore","name":"South Shore","lat":40.43616,"lon":-80.01045,"area_sqkm":0.6,"population":null,"density_per_sqkm":null,"population_profile":"South Shore","combined_profile":false},"geometry":{"type":"Polygon","coordinates":[[[-80.02782,40.4449],[-80.02446,40.44352],[-80.01978,40.44222],[-80.01264,40.43825],[-80.00793,40.43621],[-80.00062,40.43263],[-79.99883,40.43189],[-79.99744,40.43174],[-79.99927,40.42915],[-80.00561,40.43172],[-80.00581,40.43208],[-80.01161,40.43576],[-80.01259,40.43611],[-80.01362,40.437],[-80.01345,40.4372],[-80.01383,40.4376],[-80.01537,40.43768],[-80.0164,40.43814],[-80.01648,40.43923],[-80.0285,40.44395],[-80.02775,40.44394],[-80.02828,40.44426],[-80.02782,40.4449]]]}},{"type":"Feature","properties":{"id":"mt_oliver","name":"Mt. Oliver","lat":40.41088,"lon":-79.97938,"area_sqkm":0.27,"population":3200,"density_per_sqkm":1209,"population_profile":"Arlington - Arlington Heights - Mount Oliver (City Neighborhood) - St. Clair","combined_profile":true},"geometry":{"type":"Polygon","coordinates":[[[-79.9777,40.41414],[-79.97727,40.41365],[-79.97699,40.41299],[-79.97731,40.41126],[-79.97723,40.41061],[-79.9774,40.40942],[-79.97846,40.40681],[-79.97842,40.40626],[-79.98048,40.40717],[-79.98109,40.40785],[-79.9808,40.40949],[-79.98157,40.41042],[-79.9818,40.41411],[-79.97835,40.41424],[-79.9777,40.41414]]]}},{"type":"Feature","properties":{"id":"california_kirkbride","name":"California-Kirkbride","lat":40.45996,"lon":-80.02188,"area_sqkm":0.56,"population":2739,"density_per_sqkm":2132,"population_profile":"Manchester-California-Kirkbride","combined_profile":true},"geometry":{"type":"Polygon","coordinates":[[[-80.02057,40.46298],[-80.01925,40.46189],[-80.01835,40.46044],[-80.0164,40.45926],[-80.01535,40.4561],[-80.01808,40.45578],[-80.01825,40.45556],[-80.02011,40.45521],[-80.0206,40.45669],[-80.02346,40.45817],[-80.02345,40.45881],[-80.02463,40.45963],[-80.0298,40.46158],[-80.03078,40.46213],[-80.02942,40.46309],[-80.02889,40.46277],[-80.02681,40.463],[-80.02271,40.46379],[-80.02204,40.46339],[-80.02057,40.46298]]]}},{"type":"Feature","properties":{"id":"spring_hill_city_view","name":"Spring Hill-City View","lat":40.46718,"lon":-79.99522,"area_sqkm":1.65,"population":2643,"density_per_sqkm":1604,"population_profile":"Spring Hill-City View","combined_profile":false},"geometry":{"type":"Polygon","coordinates":[[[-79.99761,40.4746],[-79.99755,40.47299],[-79.99186,40.47314],[-79.99228,40.47356],[-79.99146,40.47361],[-79.98969,40.4709],[-79.98872,40.47069],[-79.98798,40.47003],[-79.98774,40.4686],[-79.98706,40.46777],[-79.98667,40.46634],[-79.98704,40.46384],[-79.98731,40.4637],[-79.98834,40.46211],[-79.98899,40.4625],[-79.98885,40.46218],[-79.99021,40.4616],[-79.99037,40.46176],[-79.99162,40.46148],[-79.99218,40.46112],[-79.99231,40.46173],[-79.99638,40.45935],[-79.99941,40.45861],[-79.99973,40.45989],[-79.99993,40.4644],[-80.00028,40.46567],[-80.005,40.47222],[-80.00287,40.47321],[-80.00055,40.4733],[-80.0005,40.47418],[-79.99761,40.4746]]]}},{"type":"Feature","properties":{"id":"sheraden","name":"Sheraden","lat":40.45543,"lon":-80.05675,"area_sqkm":2.3,"population":8808,"density_per_sqkm":1289,"population_profile":"Esplen-Sheraden-Chartiers City- Windgap-Fairywood","combined_profile":true},"geometry":{"type":"Polygon","coordinates":[[[-80.05739,40.4606],[-80.05584,40.4607],[-80.05347,40.46136],[-80.05209,40.46116],[-80.04851,40.45883],[-80.04373,40.4562],[-80.04192,40.45472],[-80.04097,40.45341],[-80.0399,40.45262],[-80.0445,40.45053],[-80.04513,40.45042],[-80.05111,40.4515],[-80.05349,40.45243],[-80.05502,40.45256],[-80.05525,40.45212],[-80.05996,40.45068],[-80.06284,40.44855],[-80.0657,40.45042],[-80.06944,40.45158],[-80.07216,40.45328],[-80.06695,40.45608],[-80.0671,40.45688],[-80.06735,40.45716],[-80.0669,40.45735],[-80.06746,40.45791],[-80.06697,40.45979],[-80.06899,40.46045],[-80.06205,40.46188],[-80.05838,40.46075],[-80.05739,40.4606]]]}},{"type":"Feature","properties":{"id":"stanton_heights","name":"Stanton Heights","lat":40.48156,"lon":-79.93697,"area_sqkm":1.91,"population":4589,"density_per_sqkm":2400,"population_profile":"Stanton Heights","combined_profile":false},"geometry":{"type":"Polygon","coordinates":[[[-79.93522,40.48912],[-79.92975,40.48912],[-79.92554,40.48832],[-79.92598,40.48762],[-79.92697,40.48769],[-79.92984,40.4854],[-79.93202,40.47859],[-79.93172,40.47649],[-79.93192,40.47522],[-79.93147,40.47392],[-79.93172,40.47205],[-79.93279,40.47064],[-79.93455,40.47215],[-79.93546,40.47257],[-79.93494,40.47255],[-79.93652,40.47411],[-79.93653,40.47428],[-79.93837,40.47412],[-79.94442,40.47865],[-79.94657,40.4776],[-79.94895,40.47818],[-79.94887,40.47835],[-79.94774,40.47797],[-79.94698,40.47811],[-79.9477,40.47865],[-79.94666,40.47942],[-79.94755,40.48008],[-79.94693,40.4807],[-79.94668,40.48051],[-79.94503,40.48186],[-79.94569,40.48242],[-79.945,40.48295],[-79.94524,40.48316],[-79.94345,40.48298],[-79.94317,40.48319],[-79.94411,40.4836],[-79.94452,40.4836],[-79.9463,40.48517],[-79.93522,40.48912]]]}},{"type":"Feature","properties":{"id":"beechview","name":"Beechview","lat":40.41267,"lon":-80.02459,"area_sqkm":3.78,"population":6812,"density_per_sqkm":1802,"population_profile":"Beechview","combined_profile":false},"geometry":{"type":"Polygon","coordinates":[[[-80.02113,40.42519],[-80.02145,40.42461],[-80.02134,40.4235],[-80.02104,40.42344],[-80.0196,40.42399],[-80.01779,40.42236],[-80.0164,40.42086],[-80.01612,40.41992],[-80.01624,40.41882],[-80.01615,40.41806],[-80.01501,40.41517],[-80.01381,40.41437],[-80.01105,40.41358],[-80.00997,40.41309],[-80.01057,40.41225],[-80.01149,40.41169],[-80.01285,40.41118],[-80.01525,40.41059],[-80.01582,40.41024],[-80.01793,40.40821],[-80.01904,40.40467],[-80.01969,40.40371],[-80.02217,40.40175],[-80.02382,40.40013],[-80.02594,40.39851],[-80.02939,40.39721],[-80.03176,40.4001],[-80.03147,40.4004],[-80.03249,40.40174],[-80.03267,40.40154],[-80.0367,40.40079],[-80.03563,40.40171],[-80.03547,40.40429],[-80.03635,40.40427],[-80.0363,40.40529],[-80.03552,40.40524],[-80.03505,40.40586],[-80.03378,40.40618],[-80.03421,40.40697],[-80.03303,40.40771],[-80.03238,40.40859],[-80.0313,40.41078],[-80.03011,40.41429],[-80.02989,40.41592],[-80.02959,40.42244],[-80.03006,40.4242],[-80.03092,40.42492],[-80.03104,40.42605],[-80.0309,40.42697],[-80.03049,40.4279],[-80.0297,40.42893],[-80.02804,40.43008],[-80.02724,40.42947],[-80.02452,40.42649],[-80.02344,40.42594],[-80.02113,40.42519]]]}},{"type":"Feature","properties":{"id":"st_clair","name":"St. Clair","lat":40.40881,"lon":-79.97221,"area_sqkm":0.81,"population":3200,"density_per_sqkm":1209,"population_profile":"Arlington - Arlington Heights - Mount Oliver (City Neighborhood) - St. Clair","combined_profile":true},"geometry":{"type":"Polygon","coordinates":[[[-79.96986,40.41197],[-79.96767,40.41173],[-79.96475,40.41003],[-79.96448,40.4097],[-79.96442,40.40918],[-79.96526,40.40834],[-79.96522,40.40798],[-79.96646,40.40702],[-79.96932,40.40549],[-79.97223,40.40502],[-79.97261,40.40482],[-79.97485,40.40464],[-79.97588,40.4042],[-79.97595,40.40404],[-79.97656,40.40393],[-79.9759,40.40438],[-79.97797,40.40578],[-79.97842,40.40626],[-79.97848,40.40661],[-79.97745,40.40929],[-79.97724,40.41051],[-79.97731,40.41126],[-79.97699,40.41299],[-79.97727,40.41365],[-79.9777,40.41414],[-79.97562,40.41325],[-79.97352,40.41266],[-79.96986,40.41197]]]}},{"type":"Feature","properties":{"id":"chateau","name":"Chateau","lat":40.45346,"lon":-80.03101,"area_sqkm":0.99,"population":null,"density_per_sqkm":null,"population_profile":"Chateau","combined_profile":false},"geometry":{"type":"Polygon","coordinates":[[[-80.03213,40.46207],[-80.03059,40.46089],[-80.02729,40.45098],[-80.02681,40.45106],[-80.02665,40.45057],[-80.02517,40.45084],[-80.02499,40.45042],[-80.0189,40.45153],[-80.01686,40.4449],[-80.02181,40.44626],[-80.02371,40.44647],[-80.02552,40.44716],[-80.02893,40.44898],[-80.03093,40.45052],[-80.03222,40.45202],[-80.03284,40.45208],[-80.03246,40.45223],[-80.03376,40.45333],[-80.03416,40.45397],[-80.03476,40.45563],[-80.03476,40.45624],[-80.03455,40.45639],[-80.03481,40.45668],[-80.03479,40.45869],[-80.03501,40.45872],[-80.03515,40.45986],[-80.03591,40.46132],[-80.03213,40.46207]]]}},{"type":"Feature","properties":{"id":"shadyside","name":"Shadyside","lat":40.45348,"lon":-79.93234,"area_sqkm":2.38,"population":14218,"density_per_sqkm":5966,"population_profile":"Shadyside","combined_profile":false},"geometry":{"type":"Polygon","coordinates":[[[-79.92123,40.46005],[-79.91243,40.45404],[-79.92208,40.45269],[-79.92751,40.45052],[-79.93581,40.44792],[-79.94736,40.44711],[-79.94969,40.45259],[-79.94309,40.45457],[-79.94428,40.45526],[-79.94199,40.45595],[-79.9415,40.45505],[-79.92273,40.46066],[-79.92123,40.46005]]]}},{"type":"Feature","properties":{"id":"summer_hill","name":"Summer Hill","lat":40.49196,"lon":-80.00825,"area_sqkm":1.14,"population":2815,"density_per_sqkm":1438,"population_profile":"Northview Heights - Summer Hill","combined_profile":true},"geometry":{"type":"Polygon","coordinates":[[[-80.01082,40.50104],[-80.01068,40.4991],[-80.00892,40.49915],[-80.00923,40.49848],[-80.00913,40.49755],[-80.00779,40.49753],[-80.00776,40.49799],[-80.00746,40.49796],[-80.00634,40.4974],[-80.00501,40.49716],[-80.00403,40.4978],[-80.00322,40.48295],[-80.0036,40.48291],[-80.00424,40.4833],[-80.00472,40.48333],[-80.00598,40.48237],[-80.00671,40.4829],[-80.00898,40.48349],[-80.00927,40.48397],[-80.01044,40.48969],[-80.01251,40.49671],[-80.014,40.49649],[-80.01629,40.49745],[-80.01787,40.49725],[-80.01699,40.49984],[-80.01576,40.49992],[-80.01334,40.49873],[-80.01238,40.49876],[-80.01168,40.50022],[-80.01082,40.50104]]]}},{"type":"Feature","properties":{"id":"west_oakland","name":"West Oakland","lat":40.44012,"lon":-79.96625,"area_sqkm":0.6,"population":5291,"density_per_sqkm":3660,"population_profile":"Terrace Village - West Oakland","combined_profile":true},"geometry":{"type":"Polygon","coordinates":[[[-79.96327,40.44363],[-79.96199,40.44278],[-79.96101,40.44366],[-79.95988,40.44315],[-79.95934,40.44356],[-79.95744,40.44252],[-79.96341,40.43811],[-79.96394,40.43785],[-79.96534,40.43767],[-79.96591,40.43684],[-79.9665,40.43651],[-79.9688,40.43646],[-79.97355,40.43796],[-79.97755,40.43824],[-79.97341,40.43999],[-79.97302,40.43979],[-79.97395,40.44086],[-79.97358,40.44099],[-79.97324,40.44092],[-79.97228,40.44027],[-79.97169,40.4396],[-79.97049,40.43971],[-79.96978,40.43919],[-79.96872,40.43878],[-79.96836,40.43939],[-79.96786,40.43937],[-79.96756,40.43953],[-79.9679,40.44109],[-79.96851,40.44227],[-79.96791,40.44274],[-79.96802,40.44291],[-79.96607,40.44338],[-79.96576,40.44283],[-79.96326,40.44467],[-79.96338,40.44408],[-79.96327,40.44363]]]}},{"type":"Feature","properties":{"id":"windgap","name":"Windgap","lat":40.45621,"lon":-80.07519,"area_sqkm":1.08,"population":8808,"density_per_sqkm":1289,"population_profile":"Esplen-Sheraden-Chartiers City- Windgap-Fairywood","combined_profile":true},"geometry":{"type":"Polygon","coordinates":[[[-80.07489,40.46369],[-80.07589,40.46184],[-80.07322,40.46087],[-80.07324,40.45798],[-80.07296,40.4556],[-80.072,40.45428],[-80.07216,40.45328],[-80.06944,40.45158],[-80.06621,40.45063],[-80.06512,40.45009],[-80.0621,40.44802],[-80.0619,40.44781],[-80.06242,40.44738],[-80.06261,40.44724],[-80.06363,40.44793],[-80.06401,40.44763],[-80.06433,40.44771],[-80.06429,40.44818],[-80.06535,40.44855],[-80.06535,40.44883],[-80.0662,40.44939],[-80.06669,40.44883],[-80.06722,40.44884],[-80.06836,40.44779],[-80.06995,40.44889],[-80.0728,40.44952],[-80.0739,40.45064],[-80.07685,40.45273],[-80.08015,40.45584],[-80.08021,40.45616],[-80.08085,40.45626],[-80.08425,40.45938],[-80.08263,40.45985],[-80.08146,40.46063],[-80.08089,40.46124],[-80.07994,40.46337],[-80.07806,40.46469],[-80.0765,40.46466],[-80.07489,40.46369]]]}},{"type":"Feature","properties":{"id":"spring_garden","name":"Spring Garden","lat":40.46747,"lon":-79.98563,"area_sqkm":0.69,"population":3766,"density_per_sqkm":1997,"population_profile":"Troy Hill - Spring Garden","combined_profile":true},"geometry":{"type":"Polygon","coordinates":[[[-79.98387,40.46633],[-79.98446,40.46606],[-79.98529,40.46613],[-79.98597,40.46404],[-79.98516,40.46368],[-79.98546,40.46317],[-79.98655,40.46208],[-79.98738,40.46087],[-79.98748,40.46064],[-79.98737,40.46022],[-79.9877,40.45995],[-79.98814,40.4597],[-79.99014,40.45937],[-79.9924,40.45878],[-79.9926,40.45859],[-79.99257,40.458],[-79.9929,40.45746],[-79.99471,40.45822],[-79.99548,40.45811],[-79.99465,40.45973],[-79.99301,40.46136],[-79.99231,40.46173],[-79.99218,40.46112],[-79.99162,40.46148],[-79.99037,40.46176],[-79.99021,40.4616],[-79.98885,40.46218],[-79.98899,40.4625],[-79.98834,40.46211],[-79.98731,40.4637],[-79.98704,40.46384],[-79.98667,40.46634],[-79.98706,40.46777],[-79.98774,40.4686],[-79.98798,40.47003],[-79.98872,40.47069],[-79.98969,40.4709],[-79.99146,40.47361],[-79.99228,40.47356],[-79.99329,40.4746],[-79.99342,40.47667],[-79.99503,40.47737],[-79.99269,40.47739],[-79.98893,40.47705],[-79.9881,40.47677],[-79.98588,40.47191],[-79.98387,40.46633]]]}},{"type":"Feature","properties":{"id":"squirrel_hill_south","name":"Squirrel Hill South","lat":40.43003,"lon":-79.92272,"area_sqkm":6.93,"population":27002,"density_per_sqkm":2673,"population_profile":"Squirrel Hill","combined_profile":true},"geometry":{"type":"Polygon","coordinates":[[[-79.94716,40.4415],[-79.94225,40.44049],[-79.94231,40.44018],[-79.94156,40.4398],[-79.94057,40.43881],[-79.939,40.43856],[-79.93651,40.43771],[-79.93565,40.43757],[-79.92698,40.43808],[-79.90572,40.43807],[-79.90482,40.4382],[-79.90186,40.43939],[-79.90027,40.43952],[-79.89905,40.43774],[-79.89899,40.43645],[-79.89868,40.43558],[-79.90137,40.42724],[-79.90214,40.42711],[-79.90319,40.42637],[-79.90385,40.42616],[-79.90527,40.42634],[-79.90677,40.42588],[-79.9073,40.42398],[-79.90762,40.42396],[-79.90782,40.42415],[-79.90851,40.42393],[-79.91171,40.42006],[-79.91405,40.41921],[-79.9144,40.41874],[-79.91529,40.41814],[-79.91576,40.41706],[-79.91642,40.41659],[-79.9161,40.41609],[-79.91561,40.41571],[-79.91419,40.41542],[-79.91581,40.41482],[-79.91736,40.41379],[-79.91806,40.41318],[-79.91821,40.41276],[-79.91974,40.41163],[-79.92027,40.41203],[-79.92076,40.41163],[-79.92131,40.41237],[-79.92156,40.41223],[-79.92171,40.41178],[-79.92202,40.41194],[-79.92243,40.41171],[-79.92283,40.41195],[-79.9226,40.41274],[-79.92289,40.41279],[-79.92285,40.41294],[-79.92353,40.41355],[-79.92343,40.41374],[-79.92497,40.41506],[-79.92491,40.41546],[-79.9258,40.41665],[-79.92605,40.41794],[-79.92715,40.41962],[-79.9261,40.41955],[-79.92629,40.42355],[-79.92574,40.42543],[-79.92671,40.42586],[-79.92687,40.42658],[-79.92816,40.42753],[-79.92676,40.42816],[-79.92944,40.42877],[-79.93168,40.42902],[-79.93603,40.42857],[-79.93787,40.42863],[-79.93905,40.42886],[-79.94014,40.42952],[-79.94005,40.42982],[-79.94186,40.43011],[-79.94314,40.42966],[-79.94347,40.42927],[-79.94685,40.42848],[-79.94912,40.42913],[-79.9494,40.42889],[-79.94966,40.4292],[-79.94989,40.43405],[-79.94958,40.43651],[-79.94986,40.43932],[-79.9497,40.44024],[-79.94896,40.44119],[-79.94819,40.44081],[-79.94716,40.4415]]]}},{"type":"Feature","properties":{"id":"strip_district","name":"Strip District","lat":40.45385,"lon":-79.98094,"area_sqkm":1.58,"population":1928,"density_per_sqkm":1224,"population_profile":"Strip District","combined_profile":false},"geometry":{"type":"Polygon","coordinates":[[[-79.96808,40.46102],[-79.97495,40.4563],[-79.97477,40.45622],[-79.97433,40.45646],[-79.97397,40.45646],[-79.97291,40.45562],[-79.97384,40.45474],[-79.97335,40.45418],[-79.97419,40.45338],[-79.97367,40.45285],[-79.97619,40.45129],[-79.97747,40.45077],[-79.98095,40.44992],[-79.98234,40.44935],[-79.98479,40.44805],[-79.99037,40.4446],[-79.99001,40.44595],[-79.99172,40.44504],[-79.99296,40.44497],[-79.99425,40.44545],[-79.99544,40.44714],[-79.9905,40.45033],[-79.9893,40.45127],[-79.98843,40.45171],[-79.98581,40.45385],[-79.98157,40.45675],[-79.98097,40.45741],[-79.97977,40.4582],[-79.97665,40.46072],[-79.97288,40.46447],[-79.97265,40.46487],[-79.96808,40.46102]]]}},{"type":"Feature","properties":{"id":"swisshelm_park","name":"Swisshelm Park","lat":40.42125,"lon":-79.90485,"area_sqkm":1.23,"population":1369,"density_per_sqkm":1116,"population_profile":"Swisshelm Park","combined_profile":false},"geometry":{"type":"Polygon","coordinates":[[[-79.89101,40.4272],[-79.89209,40.4263],[-79.89348,40.42564],[-79.8947,40.42567],[-79.89525,40.42605],[-79.89672,40.42647],[-79.89675,40.42627],[-79.89749,40.42594],[-79.89929,40.41698],[-79.902,40.41738],[-79.90416,40.41731],[-79.91075,40.4163],[-79.91266,40.41593],[-79.91419,40.41542],[-79.91561,40.41571],[-79.91642,40.41657],[-79.91576,40.41706],[-79.91529,40.41814],[-79.9144,40.41874],[-79.91405,40.41921],[-79.91171,40.42006],[-79.90851,40.42393],[-79.90782,40.42415],[-79.90762,40.42396],[-79.9073,40.42398],[-79.90687,40.42571],[-79.90663,40.42598],[-79.90527,40.42634],[-79.90385,40.42616],[-79.90319,40.42637],[-79.90214,40.42711],[-79.90135,40.42724],[-79.89893,40.42691],[-79.89835,40.42658],[-79.89701,40.4265],[-79.89624,40.42693],[-79.89518,40.42649],[-79.89421,40.4265],[-79.89319,40.42685],[-79.89218,40.4279],[-79.89106,40.42732],[-79.89101,40.4272]]]}},{"type":"Feature","properties":{"id":"perry_south","name":"Perry South","lat":40.46823,"lon":-80.01414,"area_sqkm":2.35,"population":3552,"density_per_sqkm":1513,"population_profile":"Perry South","combined_profile":false},"geometry":{"type":"Polygon","coordinates":[[[-80.01422,40.47745],[-80.01447,40.47729],[-80.01546,40.47719],[-80.01587,40.47673],[-80.01579,40.47633],[-80.01486,40.47566],[-80.01443,40.47478],[-80.01125,40.47496],[-80.01211,40.47566],[-80.01215,40.47615],[-80.00776,40.47671],[-80.00724,40.47553],[-80.00221,40.46845],[-80.00251,40.46792],[-80.00351,40.46754],[-80.00592,40.46738],[-80.00578,40.46714],[-80.00374,40.46631],[-80.00361,40.46598],[-80.00385,40.46573],[-80.00509,40.46543],[-80.00561,40.46502],[-80.00589,40.46588],[-80.01005,40.46511],[-80.00954,40.46345],[-80.00884,40.46234],[-80.00874,40.46122],[-80.00908,40.46115],[-80.01005,40.45997],[-80.01218,40.46008],[-80.0129,40.46027],[-80.01545,40.45974],[-80.01536,40.45947],[-80.01642,40.45928],[-80.01835,40.46044],[-80.01925,40.46189],[-80.02039,40.46285],[-80.02084,40.46313],[-80.02236,40.46356],[-80.02357,40.4644],[-80.02468,40.46546],[-80.02483,40.46567],[-80.02533,40.46902],[-80.02583,40.47062],[-80.0237,40.47118],[-80.02263,40.47218],[-80.01718,40.47232],[-80.01737,40.4773],[-80.01422,40.47745]]]}},{"type":"Feature","properties":{"id":"upper_lawrenceville","name":"Upper Lawrenceville","lat":40.48298,"lon":-79.94982,"area_sqkm":1.05,"population":2549,"density_per_sqkm":2437,"population_profile":"Upper Lawrenceville","combined_profile":false},"geometry":{"type":"Polygon","coordinates":[[[-79.93768,40.49001],[-79.93716,40.48844],[-79.9463,40.48517],[-79.94452,40.4836],[-79.94411,40.4836],[-79.94317,40.48319],[-79.94345,40.48298],[-79.94524,40.48316],[-79.945,40.48295],[-79.94569,40.48242],[-79.94503,40.48186],[-79.94668,40.48051],[-79.94693,40.4807],[-79.94755,40.48008],[-79.94666,40.47942],[-79.9477,40.47865],[-79.94698,40.47811],[-79.94715,40.478],[-79.94774,40.47797],[-79.94887,40.47835],[-79.94895,40.47818],[-79.95091,40.47742],[-79.95239,40.47764],[-79.95405,40.47732],[-79.95596,40.47852],[-79.95981,40.48132],[-79.95952,40.48172],[-79.95846,40.48251],[-79.95571,40.48385],[-79.95413,40.48488],[-79.95103,40.48619],[-79.94885,40.48682],[-79.94744,40.48742],[-79.94415,40.48817],[-79.93979,40.48951],[-79.93768,40.49001]]]}},{"type":"Feature","properties":{"id":"regent_square","name":"Regent Square","lat":40.4329,"lon":-79.89762,"area_sqkm":0.51,"population":6397,"density_per_sqkm":2059,"population_profile":"Point Breeze-Regent Square","combined_profile":true},"geometry":{"type":"Polygon","coordinates":[[[-79.89711,40.42762],[-79.89663,40.42752],[-79.8951,40.42817],[-79.89425,40.42702],[-79.89377,40.42693],[-79.89288,40.42827],[-79.89218,40.4279],[-79.89329,40.42678],[-79.89461,40.42645],[-79.89544,40.42655],[-79.89624,40.42693],[-79.89701,40.4265],[-79.89835,40.42658],[-79.89893,40.42691],[-79.90137,40.42724],[-79.89868,40.43558],[-79.89899,40.43645],[-79.89905,40.43774],[-79.90027,40.43952],[-79.89469,40.43984],[-79.89711,40.42762]]]}},{"type":"Feature","properties":{"id":"terrace_village","name":"Terrace Village","lat":40.44373,"lon":-79.96959,"area_sqkm":0.84,"population":5291,"density_per_sqkm":3660,"population_profile":"Terrace Village - West Oakland","combined_profile":true},"geometry":{"type":"Polygon","coordinates":[[[-79.95848,40.44846],[-79.9592,40.44771],[-79.95955,40.44761],[-79.95997,40.44721],[-79.96028,40.44584],[-79.9606,40.44556],[-79.96195,40.44554],[-79.96255,40.44536],[-79.96326,40.44467],[-79.96576,40.44283],[-79.96607,40.44338],[-79.96802,40.44291],[-79.96791,40.44274],[-79.96851,40.44227],[-79.9679,40.44109],[-79.96756,40.43953],[-79.96786,40.43937],[-79.96836,40.43939],[-79.96872,40.43878],[-79.96978,40.43919],[-79.97049,40.43971],[-79.97169,40.4396],[-79.97228,40.44027],[-79.97353,40.44099],[-79.97395,40.44086],[-79.97302,40.43979],[-79.97341,40.43999],[-79.97538,40.43921],[-79.97788,40.43936],[-79.97867,40.44032],[-79.97832,40.44066],[-79.97888,40.44108],[-79.97921,40.44217],[-79.97968,40.44271],[-79.97562,40.44445],[-79.97505,40.44367],[-79.96906,40.44605],[-79.96517,40.44872],[-79.96455,40.44889],[-79.96235,40.44889],[-79.95925,40.44832],[-79.95848,40.44846]]]}},{"type":"Feature","properties":{"id":"elliott","name":"Elliott","lat":40.44436,"lon":-80.03876,"area_sqkm":1.57,"population":2639,"density_per_sqkm":1273,"population_profile":"West End - Elliott","combined_profile":true},"geometry":{"type":"Polygon","coordinates":[[[-80.03619,40.45073],[-80.03203,40.44753],[-80.02782,40.4449],[-80.02816,40.4443],[-80.0287,40.44454],[-80.03281,40.44263],[-80.03316,40.44305],[-80.03566,40.44211],[-80.03544,40.44167],[-80.03655,40.44129],[-80.03705,40.44129],[-80.03711,40.44072],[-80.03571,40.44059],[-80.03516,40.4396],[-80.03523,40.43872],[-80.03565,40.43768],[-80.03578,40.43615],[-80.0361,40.43573],[-80.03801,40.43618],[-80.03913,40.43664],[-80.03976,40.4371],[-80.04128,40.43735],[-80.04425,40.43817],[-80.04573,40.43831],[-80.0473,40.43816],[-80.04743,40.43999],[-80.04588,40.44058],[-80.04513,40.44196],[-80.04512,40.44211],[-80.04531,40.44196],[-80.04579,40.44234],[-80.04326,40.44433],[-80.04279,40.444],[-80.04161,40.44498],[-80.0421,40.44546],[-80.04345,40.44575],[-80.04397,40.44615],[-80.04415,40.44691],[-80.04407,40.44801],[-80.04528,40.45043],[-80.04445,40.45055],[-80.04095,40.45206],[-80.03898,40.45315],[-80.03619,40.45073]]]}},{"type":"Feature","properties":{"id":"south_side_flats","name":"South Side Flats","lat":40.42712,"lon":-79.97472,"area_sqkm":2.39,"population":7335,"density_per_sqkm":3064,"population_profile":"South Side Flats","combined_profile":false},"geometry":{"type":"Polygon","coordinates":[[[-79.97771,40.43279],[-79.97441,40.43247],[-79.9744,40.43229],[-79.97412,40.43213],[-79.97345,40.43193],[-79.97069,40.43158],[-79.9688,40.4311],[-79.96855,40.43087],[-79.96855,40.43109],[-79.96683,40.43054],[-79.96468,40.42956],[-79.96248,40.4282],[-79.96187,40.42778],[-79.96008,40.42599],[-79.9582,40.42458],[-79.9576,40.42364],[-79.95652,40.42272],[-79.95596,40.42176],[-79.95524,40.41996],[-79.95499,40.4186],[-79.95486,40.41376],[-79.95449,40.41204],[-79.9547,40.41133],[-79.9544,40.41094],[-79.95443,40.4107],[-79.9551,40.41055],[-79.95526,40.41107],[-79.95584,40.41095],[-79.95576,40.41428],[-79.9559,40.4154],[-79.95642,40.41701],[-79.95739,40.41845],[-79.95817,40.41923],[-79.96496,40.42374],[-79.96674,40.42428],[-79.97211,40.42489],[-79.98628,40.42576],[-79.99881,40.42976],[-79.99744,40.43174],[-79.99666,40.4315],[-79.99135,40.4314],[-79.98493,40.43212],[-79.98258,40.43224],[-79.98171,40.43214],[-79.97943,40.4324],[-79.97771,40.43279]]]}},{"type":"Feature","properties":{"id":"fineview","name":"Fineview","lat":40.46282,"lon":-80.00428,"area_sqkm":0.64,"population":1255,"density_per_sqkm":1950,"population_profile":"Fineview","combined_profile":false},"geometry":{"type":"Polygon","coordinates":[[[-80.00221,40.46845],[-80.00053,40.46614],[-80.00004,40.465],[-79.99973,40.45989],[-80.00005,40.45978],[-80.00005,40.45997],[-80.00098,40.45943],[-80.00083,40.45896],[-80.00296,40.45856],[-80.00684,40.45908],[-80.00777,40.45886],[-80.0085,40.45961],[-80.0088,40.46219],[-80.00954,40.46345],[-80.01005,40.46511],[-80.00589,40.46588],[-80.00561,40.46502],[-80.00509,40.46543],[-80.00379,40.46576],[-80.00361,40.4661],[-80.0038,40.46635],[-80.00578,40.46714],[-80.00592,40.46738],[-80.00351,40.46754],[-80.00251,40.46792],[-80.00221,40.46845]]]}}]}